UID,Latitude,Longitude,Name,City,St,Zip,Cat,Elev,Comments,Pin
199908,31.023838,-87.497017,Low Clearance,Atmore,AL,36502,LCX,,unmarked height clearance,low_unk_pushpin
199909,33.574878999999996,-86.788341,Low Clearance,Birmingham,AL,35217,LCX,,unmarked height clearance,low_unk_pushpin
199910,32.192226,-87.46045600000001,Low Clearance,Catherine,AL,36728,LCX,,unmarked height clearance,low_unk_pushpin
199911,33.725997,-87.14912700000001,Low Clearance,Cordova,AL,35550,LCX,,unmarked height clearance,low_unk_pushpin
199912,33.735547,-87.110745,Low Clearance,Dora,AL,35062,LCX,,unmarked height clearance,low_unk_pushpin
199913,33.524599,-86.891346,Low Clearance,Fairfield,AL,35064,LCX,,ns unknown height clearance,low_unk_pushpin
199914,33.479221,-86.929728,Low Clearance,Fairfield,AL,35064,LCX,,unmarked height clearance,low_unk_pushpin
199915,34.010771000000005,-85.99876,Low Clearance,Gadsden,AL,35901,LCX,,unmarked height clearance,low_unk_pushpin
199916,34.013273999999996,-85.996434,Low Clearance,Gadsden,AL,35901,LCX,,unmarked height clearance,low_unk_pushpin
199917,34.011677,-85.997943,Low Clearance,Gadsden,AL,35901,LCX,,unmarked height clearance,low_unk_pushpin
199918,34.073532,-86.75246899999999,Low Clearance,Hanceville,AL,35077,LCX,,unmarked height clearance,low_unk_pushpin
199919,33.889706,-86.759987,Low Clearance,Hayden,AL,35079,LCX,,unmarked height clearance,low_unk_pushpin
199920,34.729944,-86.596815,Low Clearance,Huntsville,AL,35816,LCX,,unmarked height clearance,low_unk_pushpin
199921,33.825439,-87.276338,Low Clearance,Jasper,AL,35501,LCX,,unmarked height clearance,low_unk_pushpin
199922,33.852632,-87.304082,Low Clearance,Jasper,AL,35501,LCX,,unmarked height clearance,low_unk_pushpin
199923,33.54087,-86.535035,Low Clearance,Leeds,AL,35094,LCX,,unmarked height clearance,low_unk_pushpin
199924,33.541833000000004,-86.534724,Low Clearance,Leeds,AL,35094,LCX,,unmarked height clearance,low_unk_pushpin
199925,30.661004,-88.058074,Low Clearance,Mobile,AL,36605,LCX,,unmarked height clearance,low_unk_pushpin
199926,30.713406,-88.167704,Low Clearance,Mobile,AL,36608,LCX,,unmarked height clearance,low_unk_pushpin
199927,30.659759,-88.058696,Low Clearance,Mobile,AL,36605,LCX,,unmarked height clearance,low_unk_pushpin
199928,31.60339,-87.409898,Low Clearance,Monroeville,AL,36460,LCX,,unmarked height clearance,low_unk_pushpin
199929,31.394810999999997,-85.58662,Low Clearance,Ozark,AL,36360,LCX,,unmarked height clearance,low_unk_pushpin
199930,33.591513,-86.390196,Low Clearance,Pell City,AL,35128,LCX,,unmarked height clearance,low_unk_pushpin
199931,32.459628,-86.460139,Low Clearance,Pratville,AL,36067,LCX,,unmarked height clearance,low_unk_pushpin
199932,33.703224,-87.083373,Low Clearance,Quinton,AL,35130,LCX,,unmarked height clearance,low_unk_pushpin
199933,32.545487,-85.112779,Low Clearance,Smiths Station,AL,36877,LCX,,unmarked height clearance,low_unk_pushpin
199934,32.766837,-86.878454,Low Clearance,Stanton,AL,36790,LCX,,unmarked height clearance,low_unk_pushpin
199935,32.766498,-86.878259,Low Clearance,Stanton,AL,36790,LCX,,unmarked height clearance,low_unk_pushpin
199936,33.438107,-86.109898,Low Clearance,Talladega,AL,35160,LCX,,unmarked height clearance,low_unk_pushpin
199937,33.434076,-86.18400799999999,Low Clearance,Talladega,AL,35160,LCX,,unmarked height clearance,low_unk_pushpin
199938,31.806395000000002,-85.98845,Low Clearance,Troy,AL,36108,LCX,,unmarked height clearance,low_unk_pushpin
199939,33.20192,-87.525127,Low Clearance,Tuscaloosa,AL,35404,LCX,,unmarked height clearance,low_unk_pushpin
199940,33.856514000000004,-85.905649,Low Clearance,Wellington,AL,36279,LCX,,unmarked height clearance,low_unk_pushpin
199941,33.248542,-86.47417800000001,Low Clearance,Wilsonville,AL,35186,LCX,,unmarked height clearance,low_unk_pushpin
199942,40.260104999999996,-103.598472,Low Clearance,Brush,CO,80723,LCX,,unmarked height clearance,low_unk_pushpin
199943,34.088538,-84.699878,Low Clearance,Acworth,GA,30102,LCX,,unmarked height clearance,low_unk_pushpin
199944,34.064640999999995,-84.666863,Low Clearance,Acworth,GA,30101,LCX,,unmarked height clearance,low_unk_pushpin
199945,33.966529,-83.37141700000001,Low Clearance,Athens,GA,30601,LCX,,unmarked height clearance,low_unk_pushpin
199946,33.966318,-83.373072,Low Clearance,Athens,GA,30601,LCX,,unmarked height clearance,low_unk_pushpin
199947,33.773377,-84.364602,Low Clearance,Atlanta,GA,30312,LCX,,unmarked height clearance,low_unk_pushpin
199948,33.616847,-84.51257199999999,Low Clearance,Atlanta,GA,30349,LCX,,unmarked height clearance,low_unk_pushpin
199949,33.652799,-84.39622299999999,Low Clearance,Atlanta,GA,30354,LCX,,unmarked height clearance,low_unk_pushpin
199950,33.741105,-84.408174,Low Clearance,Atlanta,GA,30310,LCX,,unmarked height clearance,low_unk_pushpin
199951,33.770379,-84.400918,Low Clearance,Atlanta,GA,30318,LCX,,unmarked height clearance,low_unk_pushpin
199952,33.761094,-84.33115500000001,Low Clearance,Atlanta,GA,30307,LCX,,unmarked height clearance,low_unk_pushpin
199953,33.813175,-84.375516,Low Clearance,Atlanta,GA,30324,LCX,,unmarked height clearance,low_unk_pushpin
199954,33.701440999999996,-84.428415,Low Clearance,Atlanta,GA,30310,LCX,,unmarked height clearance,low_unk_pushpin
199955,33.733407,-84.413731,Low Clearance,Atlanta,GA,30310,LCX,,unmarked height clearance,low_unk_pushpin
199956,33.800771000000005,-84.387757,Low Clearance,Atlanta,GA,30309,LCX,,unmarked height clearance,low_unk_pushpin
199957,33.807567999999996,-84.377535,Low Clearance,Atlanta,GA,30324,LCX,,unmarked height clearance,low_unk_pushpin
199958,33.657271,-84.522023,Low Clearance,Atlanta,GA,30349,LCX,,unmarked height clearance,low_unk_pushpin
199959,33.811605,-84.431149,Low Clearance,Atlanta,GA,30318,LCX,,unmarked height clearance,low_unk_pushpin
199960,33.718231,-84.424539,Low Clearance,Atlanta,GA,30310,LCX,,unmarked height clearance,low_unk_pushpin
199961,33.772214,-84.426162,Low Clearance,Atlanta,GA,30318,LCX,,unmarked height clearance,low_unk_pushpin
199962,33.772285,-84.42613399999999,Low Clearance,Atlanta,GA,30318,LCX,,unmarked height clearance,low_unk_pushpin
199963,33.749190000000006,-84.383439,Low Clearance,Atlanta,GA,30303,LCX,,unmarked height clearance,low_unk_pushpin
199964,33.860671,-84.338628,Low Clearance,Atlanta,GA,30319,LCX,,unmarked height clearance,low_unk_pushpin
199965,33.753820000000005,-84.463002,Low Clearance,Atlanta,GA,30314,LCX,,unmarked height clearance,low_unk_pushpin
199966,33.747017,-84.397108,Low Clearance,Atlanta,GA,30303,LCX,,unmarked height clearance,low_unk_pushpin
199967,33.828421999999996,-84.367436,Low Clearance,Atlanta,GA,30305,LCX,,unmarked height clearance,low_unk_pushpin
199968,33.657241,-84.522029,Low Clearance,Atlanta,GA,30331,LCX,,unmarked height clearance,low_unk_pushpin
199969,33.754708,-84.467834,Low Clearance,Atlanta,GA,30311,LCX,,unmarked height clearance,low_unk_pushpin
199970,33.754740000000005,-84.467841,Low Clearance,Atlanta,GA,30311,LCX,,unmarked height clearance,low_unk_pushpin
199971,33.751104999999995,-84.496612,Low Clearance,Atlanta,GA,30311,LCX,,unmarked height clearance,low_unk_pushpin
199972,33.797334,-84.39515,Low Clearance,Atlanta,GA,30309,LCX,,unmarked height clearance,low_unk_pushpin
199973,33.726071000000005,-84.393677,Low Clearance,Atlanta,GA,30315,LCX,,unmarked height clearance,low_unk_pushpin
199974,33.748877,-84.383438,Low Clearance,Atlanta,GA,30312,LCX,,unmarked height clearance,low_unk_pushpin
199975,33.74985,-84.385104,Low Clearance,Atlanta,GA,30303,LCX,,unmarked height clearance,low_unk_pushpin
199976,33.751511,-84.490829,Low Clearance,Atlanta,GA,30311,LCX,,unmarked height clearance,low_unk_pushpin
199977,33.809668,-84.377662,Low Clearance,Atlanta,GA,30324,LCX,,unmarked height clearance,low_unk_pushpin
199978,33.740064000000004,-84.411889,Low Clearance,Atlanta,GA,30310,LCX,,unmarked height clearance,low_unk_pushpin
199979,33.857603000000005,-84.340396,Low Clearance,Atlanta,GA,30319,LCX,,unmarked height clearance,low_unk_pushpin
199980,33.768623,-84.425513,Low Clearance,Atlanta,GA,30318,LCX,,unmarked height clearance,low_unk_pushpin
199981,33.801499,-84.38756,Low Clearance,Atlanta,GA,30309,LCX,,unmarked height clearance,low_unk_pushpin
199982,33.798671999999996,-84.407838,Low Clearance,Atlanta,GA,30318,LCX,,unmarked height clearance,low_unk_pushpin
199983,33.742998,-84.40825600000001,Low Clearance,Atlanta,GA,30303,LCX,,unmarked height clearance,low_unk_pushpin
199984,33.803473,-84.33398199999999,Low Clearance,Atlanta,GA,30322,LCX,,unmarked height clearance,low_unk_pushpin
199985,33.750655,-84.386261,Low Clearance,Atlanta,GA,30303,LCX,,unmarked height clearance,low_unk_pushpin
199986,33.744890999999996,-84.39878900000001,Low Clearance,Atlanta,GA,30303,LCX,,unmarked height clearance,low_unk_pushpin
199987,33.876354,-84.325414,Low Clearance,Atlanta,GA,30319,LCX,,unmarked height clearance,low_unk_pushpin
199988,33.762578000000005,-84.31965799999999,Low Clearance,Atlanta,GA,30317,LCX,,unmarked height clearance,low_unk_pushpin
199989,33.762594,-84.319673,Low Clearance,Atlanta,GA,30317,LCX,,unmarked height clearance,low_unk_pushpin
199990,33.848574,-84.352032,Low Clearance,Atlanta,GA,30326,LCX,,unmarked height clearance,low_unk_pushpin
199991,33.842209000000004,-84.361273,Low Clearance,Atlanta,GA,30305,LCX,,unmarked height clearance,low_unk_pushpin
199992,33.75437,-84.47295799999999,Low Clearance,Atlanta,GA,30311,LCX,,unmarked height clearance,low_unk_pushpin
199993,33.761390000000006,-84.34187299999999,Low Clearance,Atlanta,GA,30307,LCX,,unmarked height clearance,low_unk_pushpin
199994,33.745914,-84.397912,Low Clearance,Atlanta,GA,30303,LCX,,unmarked height clearance,low_unk_pushpin
199995,33.7440468,-84.3995875,Low Clearance,Atlanta,GA,30303,LCX,,unmarked high height clearance,low_unk_pushpin
199996,33.912265000000005,-85.240443,Low Clearance,Buchanan,GA,30113,LCX,,ns unknown height clearance,low_unk_pushpin
199997,32.685367,-83.740803,Low Clearance,Byron,GA,31008,LCX,,unmarked high height clearance,low_unk_pushpin
199998,34.121602,-84.740511,Low Clearance,Cartersville,GA,30121,LCX,,unmarked height clearance,low_unk_pushpin
199999,34.15164,-84.771883,Low Clearance,Cartersville,GA,30120,LCX,,unmarked height clearance,low_unk_pushpin
200000,33.892676,-84.299725,Low Clearance,Chamblee,GA,30341,LCX,,unmarked height clearance,low_unk_pushpin
200001,33.886798999999996,-84.308178,Low Clearance,Chamblee,GA,30341,LCX,,unmarked height clearance,low_unk_pushpin
200002,33.806628,-84.241603,Low Clearance,Clarkston,GA,30021,LCX,,unmarked height clearance,low_unk_pushpin
200003,33.802974600000006,-84.2502139,Low Clearance,Clarkston,GA,30021,LCX,,unmarked height clearance,low_unk_pushpin
200004,33.645403,-84.450928,Low Clearance,College Park,GA,30337,LCX,,unmarked height clearance,low_unk_pushpin
200005,33.647574,-84.449786,Low Clearance,College Park,GA,30337,LCX,,unmarked height clearance,low_unk_pushpin
200006,34.516606,-83.50824399999999,Low Clearance,Cornelia,GA,30531,LCX,,unmarked low height clearance,low_unk_pushpin
200007,33.7979575,-84.30649190000001,Low Clearance,Decatur,GA,30033,LCX,,unmarked height clearance,low_unk_pushpin
200008,33.765243,-84.311527,Low Clearance,Decatur,GA,30030,LCX,,unmarked height clearance,low_unk_pushpin
200009,33.779517999999996,-84.26807600000001,Low Clearance,Decatur,GA,30030,LCX,,unmarked height clearance,low_unk_pushpin
200010,33.825195,-84.273048,Low Clearance,Decatur,GA,30033,LCX,,unmarked height clearance,low_unk_pushpin
200011,33.770655,-84.241465,Low Clearance,Decatur,GA,30032,LCX,,unmarked height clearance,low_unk_pushpin
200012,33.904932,-84.278018,Low Clearance,Doraville,GA,30360,LCX,,unmarked height clearance,low_unk_pushpin
200013,33.908116,-84.273563,Low Clearance,Doraville,GA,30340,LCX,,unmarked height clearance,low_unk_pushpin
200014,33.982698,-84.15735600000001,Low Clearance,Duluth,GA,30096,LCX,,unmarked height clearance,low_unk_pushpin
200015,34.020308,-84.117638,Low Clearance,Duluth,GA,30097,LCX,,unmarked height clearance,low_unk_pushpin
200016,33.697964,-84.428987,Low Clearance,East Point,GA,30344,LCX,,unmarked height clearance,low_unk_pushpin
200017,33.667116,-84.42840699999999,Low Clearance,East Point,GA,30344,LCX,,unmarked height clearance,low_unk_pushpin
200018,33.328299,-83.38792099999999,Low Clearance,Eatonton,GA,31024,LCX,,unmarked height clearance,low_unk_pushpin
200019,34.110003999999996,-82.86074599999999,Low Clearance,Elberton,GA,30635,LCX,,unmarked height clearance,low_unk_pushpin
200020,33.631683,-84.388305,Low Clearance,Forest Park,GA,30297,LCX,,unmarked height clearance,low_unk_pushpin
200021,34.314982,-83.793203,Low Clearance,Gainesville,GA,30501,LCX,,unmarked height clearance,low_unk_pushpin
200022,33.664555,-84.42026,Low Clearance,Hapeville,GA,30354,LCX,,unmarked height clearance,low_unk_pushpin
200023,33.07229,-83.781289,Low Clearance,Juliette,GA,31046,LCX,,unmarked height clearance,low_unk_pushpin
200024,32.617207,-84.472142,Low Clearance,Junction City,GA,31812,LCX,,unmarked height clearance,low_unk_pushpin
200025,33.983188,-84.606798,Low Clearance,Kennesaw,GA,30152,LCX,,unmarked height clearance,low_unk_pushpin
200026,33.031608,-85.0461,Low Clearance,LaGrange,GA,30240,LCX,,unmarked height clearance,low_unk_pushpin
200027,33.030056,-85.084811,Low Clearance,LaGrange,GA,30240,LCX,,unmarked height clearance,low_unk_pushpin
200028,34.447384,-83.121025,Low Clearance,Lavonia,GA,30553,LCX,,unmarked height clearance,low_unk_pushpin
200029,33.901064700000006,-84.0772382,Low Clearance,Lawrenceville,GA,30044,LCX,,unmarked height clearance,low_unk_pushpin
200030,33.814481,-84.489897,Low Clearance,Mableton,GA,30126,LCX,,unmarked height clearance,low_unk_pushpin
200031,32.845298,-83.593474,Low Clearance,Macon,GA,31217,LCX,,unmarked height clearance,low_unk_pushpin
200032,32.86833,-83.69806,Low Clearance,Macon,GA,31210,LCX,,unmarked height clearance,low_unk_pushpin
200033,32.838848,-83.617858,Low Clearance,Macon,GA,31201,LCX,,unmarked height clearance,low_unk_pushpin
200034,32.838657,-83.647926,Low Clearance,Macon,GA,31201,LCX,,unmarked height clearance,low_unk_pushpin
200035,32.836758,-83.643964,Low Clearance,Macon,GA,31201,LCX,,unmarked height clearance,low_unk_pushpin
200036,33.9577,-84.551335,Low Clearance,Marietta,GA,30060,LCX,,unmarked height clearance,low_unk_pushpin
200037,33.935545,-84.541309,Low Clearance,Marietta,GA,30060,LCX,,unmarked height clearance,low_unk_pushpin
200038,33.947503999999995,-84.54894499999999,Low Clearance,Marietta,GA,30060,LCX,,unmarked height clearance,low_unk_pushpin
200039,33.970403000000005,-84.558176,Low Clearance,Marietta,GA,30060,LCX,,unmarked height clearance,low_unk_pushpin
200040,33.906807,-84.527555,Low Clearance,Marietta,GA,30008,LCX,,unmarked height clearance,low_unk_pushpin
200041,33.576584999999994,-84.34105600000001,Low Clearance,Morrow,GA,30260,LCX,,unmarked height clearance,low_unk_pushpin
200042,33.615737,-84.349615,Low Clearance,Morrow,GA,30260,LCX,,unmarked height clearance,low_unk_pushpin
200043,33.934079,-84.223443,Low Clearance,Norcross,GA,30071,LCX,,unmarked height clearance,low_unk_pushpin
200044,32.153337,-81.18056800000001,Low Clearance,Port Wentworth,GA,31407,LCX,,unmarked height clearance,low_unk_pushpin
200045,34.000136,-85.01785699999999,Low Clearance,Rockmart,GA,30153,LCX,,unmarked height clearance,low_unk_pushpin
200046,33.793576,-84.263689,Low Clearance,Scottdale,GA,30079,LCX,,unmarked height clearance,low_unk_pushpin
200047,33.828478000000004,-84.46072,Low Clearance,Smyrna,GA,30080,LCX,,ns unknown height clearance,low_unk_pushpin
200048,33.894451000000004,-84.520178,Low Clearance,Smyrna,GA,30080,LCX,,unmarked height clearance,low_unk_pushpin
200049,34.595711,-83.283528,Low Clearance,Toccoa,GA,30577,LCX,,unmarked height clearance,low_unk_pushpin
200050,34.560957,-83.413235,Low Clearance,Toccoa,GA,30577,LCX,,ns unknown height clearance,low_unk_pushpin
200051,33.851177,-84.21843199999999,Low Clearance,Tucker,GA,30084,LCX,,unmarked height clearance,low_unk_pushpin
200052,33.558079,-84.549825,Low Clearance,Union City,GA,30291,LCX,,unmarked height clearance,low_unk_pushpin
200053,33.879469,-84.473389,Low Clearance,Vinings,GA,30339,LCX,,unmarked height clearance,low_unk_pushpin
200054,42.562455,-93.026893,Low Clearance,Ackley,IA,50601,LCX,,ns unknown height clearance,low_unk_pushpin
200055,41.034492,-92.85916,Low Clearance,Albia,IA,52531,LCX,,ns unknown height clearance,low_unk_pushpin
200056,40.92593,-92.76864,Low Clearance,Albia,IA,52531,LCX,,ns unknown height clearance,low_unk_pushpin
200057,43.074511,-94.224017,Low Clearance,Algona,IA,50511,LCX,,ns unknown height clearance,low_unk_pushpin
200058,43.07723,-94.235372,Low Clearance,Algona,IA,50511,LCX,,unmarked height clearance,low_unk_pushpin
200059,41.644112,-93.481093,Low Clearance,Altoona,IA,50009,LCX,,unmarked height clearance,low_unk_pushpin
200060,41.660786,-93.444889,Low Clearance,Altoona,IA,50009,LCX,,unmarked height clearance,low_unk_pushpin
200061,42.034971,-93.65393399999999,Low Clearance,Ames,IA,50014,LCX,,unmarked height clearance,low_unk_pushpin
200062,42.032267,-93.644745,Low Clearance,Ames,IA,50011,LCX,,unmarked height clearance,low_unk_pushpin
200063,42.301874,-94.87759399999999,Low Clearance,Auburn,IA,51433,LCX,,ns unknown height clearance,low_unk_pushpin
200064,42.295359999999995,-94.892261,Low Clearance,Auburn,IA,51433,LCX,,ns unknown height clearance,low_unk_pushpin
200065,42.5056544,-94.3444916,Low Clearance,Barnum,IA,50518,LCX,,ns unknown height clearance,low_unk_pushpin
200066,40.996809999999996,-92.139786,Low Clearance,Batavia,IA,52533,LCX,,ns unknown height clearance,low_unk_pushpin
200067,41.8968108,-92.22747209999999,Low Clearance,Belle Plaine,IA,52208,LCX,,ns unknown height clearance,low_unk_pushpin
200068,41.898641,-92.211364,Low Clearance,Belle Plaine,IA,52208,LCX,,unmarked height clearance,low_unk_pushpin
200069,42.059061,-93.973867,Low Clearance,Boone,IA,50036,LCX,,ns unknown height clearance,low_unk_pushpin
200070,43.114337,-91.681311,Low Clearance,Castalia,IA,52133,LCX,,unmarked height clearance,low_unk_pushpin
200071,42.203503000000005,-91.517896,Low Clearance,Central City,IA,52214,LCX,,unmarked height clearance,low_unk_pushpin
200072,41.038999999999994,-93.2691045,Low Clearance,Chariton,IA,50049,LCX,,ns unknown height clearance,low_unk_pushpin
200073,41.146106,-93.238607,Low Clearance,Chariton,IA,50049,LCX,,ns unknown height clearance,low_unk_pushpin
200074,41.190504,-93.2316,Low Clearance,Columbia,IA,50057,LCX,,ns unknown height clearance,low_unk_pushpin
200075,40.6231158,-93.27458940000001,Low Clearance,Corydon,IA,50060,LCX,,ns unknown height clearance,low_unk_pushpin
200076,40.757059000000005,-93.339415,Low Clearance,Corydon,IA,50060,LCX,,unmarked height clearance,low_unk_pushpin
200077,40.7388606,-93.3464927,Low Clearance,Corydon,IA,50060,LCX,,ns unknown height clearance,low_unk_pushpin
200078,41.253408,-95.808738,Low Clearance,Council Bluffs,IA,51503,LCX,,unmarked height clearance,low_unk_pushpin
200079,41.25339,-95.80766,Low Clearance,Council Bluffs,IA,51503,LCX,,unmarked height clearance,low_unk_pushpin
200080,41.249838000000004,-95.906826,Low Clearance,Council Bluffs,IA,51501,LCX,,unmarked height clearance,low_unk_pushpin
200081,41.261346,-95.799221,Low Clearance,Council Bluffs,IA,51503,LCX,,unmarked high height clearance,low_unk_pushpin
200082,41.249891999999996,-95.902077,Low Clearance,Council Bluffs,IA,51501,LCX,,unmarked height clearance,low_unk_pushpin
200083,41.241682,-95.81781600000001,Low Clearance,Council Bluffs,IA,51503,LCX,,unmarked height clearance,low_unk_pushpin
200084,41.531110999999996,-90.54715,Low Clearance,Davenport,IA,52803,LCX,,unmarked height clearance,low_unk_pushpin
200085,41.522411,-90.569683,Low Clearance,Davenport,IA,52801,LCX,,unmarked height clearance,low_unk_pushpin
200086,41.524665,-90.601196,Low Clearance,Davenport,IA,52802,LCX,,unmarked height clearance,low_unk_pushpin
200087,41.791565000000006,-95.38771899999999,Low Clearance,Defiance,IA,51527,LCX,,ns unknown height clearance,low_unk_pushpin
200088,41.806318,-95.362911,Low Clearance,Defiance,IA,51527,LCX,,ns unknown height clearance,low_unk_pushpin
200089,41.820806,-95.34275600000001,Low Clearance,Defiance,IA,51527,LCX,,ns unknown height clearance,low_unk_pushpin
200090,41.819064000000004,-95.348112,Low Clearance,Defiance,IA,51527,LCX,,unmarked height clearance,low_unk_pushpin
200091,41.507354,-94.204219,Low Clearance,Dexter,IA,50070,LCX,,unmarked height clearance,low_unk_pushpin
200092,41.507882,-94.203482,Low Clearance,Dexter,IA,50070,LCX,,unmarked height clearance,low_unk_pushpin
200093,41.782439700000005,-95.4026981,Low Clearance,Earling,IA,51530,LCX,,ns unknown height clearance,low_unk_pushpin
200094,42.448443,-90.897811,Low Clearance,Epworth,IA,52045,LCX,,ns unknown height clearance,low_unk_pushpin
200095,42.448867,-90.912633,Low Clearance,Epworth,IA,52045,LCX,,unmarked height clearance,low_unk_pushpin
200096,42.448491,-90.953282,Low Clearance,Epworth,IA,52045,LCX,,unmarked height clearance,low_unk_pushpin
200097,41.0108157,-91.91935009999999,Low Clearance,Fairfield,IA,52556,LCX,,ns unknown height clearance,low_unk_pushpin
200098,42.443911,-90.99304000000001,Low Clearance,Farley,IA,52046,LCX,,unmarked height clearance,low_unk_pushpin
200099,42.495171500000005,-94.1797421,Low Clearance,Fort Dodge,IA,50501,LCX,,unmarked height clearance,low_unk_pushpin
200100,42.491085,-94.185388,Low Clearance,Fort Dodge,IA,50501,LCX,,ns unknown height clearance,low_unk_pushpin
200101,42.510274700000004,-94.2022334,Low Clearance,Fort Dodge,IA,50501,LCX,,unmarked height clearance,low_unk_pushpin
200102,42.488618,-94.192177,Low Clearance,Fort Dodge,IA,50501,LCX,,unmarked height clearance,low_unk_pushpin
200103,42.4830776,-94.2072917,Low Clearance,Fort Dodge,IA,50501,LCX,,unmarked height clearance,low_unk_pushpin
200104,42.478783,-94.1525657,Low Clearance,Fort Dodge,IA,50501,LCX,,ns unknown height clearance,low_unk_pushpin
200105,41.905467,-92.807643,Low Clearance,Gilman,IA,50106,LCX,,ns unknown height clearance,low_unk_pushpin
200106,41.043007,-95.73402,Low Clearance,Glenwood,IA,51534,LCX,,unmarked height clearance,low_unk_pushpin
200107,41.03092,-95.746617,Low Clearance,Glenwood,IA,51534,LCX,,unmarked height clearance,low_unk_pushpin
200108,41.630541,-92.717501,Low Clearance,Grinnell,IA,50112,LCX,,ns unknown height clearance,low_unk_pushpin
200109,41.623284000000005,-92.71406400000001,Low Clearance,Grinnell,IA,50112,LCX,,ns unknown height clearance,low_unk_pushpin
200110,41.720465999999995,-92.766749,Low Clearance,Grinnell,IA,50112,LCX,,ns unknown height clearance,low_unk_pushpin
200111,42.743567999999996,-93.218938,Low Clearance,Hampton,IA,50441,LCX,,ns unknown height clearance,low_unk_pushpin
200112,41.378068,-95.393745,Low Clearance,Hancock,IA,51536,LCX,,unmarked height clearance,low_unk_pushpin
200113,41.383168,-95.368247,Low Clearance,Hancock,IA,51536,LCX,,unmarked height clearance,low_unk_pushpin
200114,41.465036,-93.411857,Low Clearance,Hartford,IA,50118,LCX,,unmarked height clearance,low_unk_pushpin
200115,43.243413000000004,-96.199525,Low Clearance,Hull,IA,51239,LCX,,ns unknown height clearance,low_unk_pushpin
200116,43.200184,-96.186548,Low Clearance,Hull,IA,51239,LCX,,unmarked height clearance,low_unk_pushpin
200117,41.667276,-91.56866600000001,Low Clearance,Iowa City,IA,52246,LCX,,unmarked height clearance,low_unk_pushpin
200118,41.653273,-91.536241,Low Clearance,Iowa City,IA,52240,LCX,,unmarked height clearance,low_unk_pushpin
200119,42.536637,-93.16422,Low Clearance,Iowa Falls,IA,50126,LCX,,ns unknown height clearance,low_unk_pushpin
200120,42.515395,-93.262757,Low Clearance,Iowa Falls,IA,50126,LCX,,unmarked height clearance,low_unk_pushpin
200121,42.016659999999995,-94.436964,Low Clearance,Jefferson,IA,50129,LCX,,ns unknown height clearance,low_unk_pushpin
200122,42.329815,-94.804354,Low Clearance,Lake City,IA,51449,LCX,,ns unknown height clearance,low_unk_pushpin
200123,42.803015,-96.162139,Low Clearance,Le Mars,IA,51031,LCX,,ns unknown height clearance,low_unk_pushpin
200124,41.678931,-95.74937,Low Clearance,Logan,IA,51546,LCX,,ns unknown height clearance,low_unk_pushpin
200125,41.037496000000004,-95.642493,Low Clearance,Malvern,IA,51551,LCX,,unmarked height clearance,low_unk_pushpin
200126,41.920552,-95.208566,Low Clearance,Manilla,IA,51454,LCX,,ns unknown height clearance,low_unk_pushpin
200127,41.925017,-95.189408,Low Clearance,Manilla,IA,51454,LCX,,ns unknown height clearance,low_unk_pushpin
200128,43.176746,-93.20970600000001,Low Clearance,Mason City,IA,50401,LCX,,ns unknown height clearance,low_unk_pushpin
200129,43.147527000000004,-93.189041,Low Clearance,Mason City,IA,50401,LCX,,unmarked height clearance,low_unk_pushpin
200130,43.147748,-93.210658,Low Clearance,Mason City,IA,50401,LCX,,unmarked height clearance,low_unk_pushpin
200131,43.173846000000005,-93.21834799999999,Low Clearance,Mason City,IA,50401,LCX,,ns unknown height clearance,low_unk_pushpin
200132,43.1720804,-93.20084320000001,Low Clearance,Mason City,IA,50401,LCX,,unmarked height clearance,low_unk_pushpin
200133,42.937542,-91.171758,Low Clearance,McGregor,IA,52157,LCX,,ns unknown height clearance,low_unk_pushpin
200134,41.298806799999994,-93.2473259,Low Clearance,Melcher-Dallas,IA,50062,LCX,,ns unknown height clearance,low_unk_pushpin
200135,41.522698999999996,-94.433554,Low Clearance,Menlo,IA,50164,LCX,,ns unknown height clearance,low_unk_pushpin
200136,42.452071999999994,-94.291837,Low Clearance,Moorland,IA,50566,LCX,,unmarked height clearance,low_unk_pushpin
200137,40.855993,-92.84899200000001,Low Clearance,Moravia,IA,52571,LCX,,ns unknown height clearance,low_unk_pushpin
200138,40.890187,-92.820985,Low Clearance,Moravia,IA,52571,LCX,,ns unknown height clearance,low_unk_pushpin
200139,40.983658,-91.651247,Low Clearance,Mt Pleasant,IA,52641,LCX,,ns unknown height clearance,low_unk_pushpin
200140,40.756543,-92.982703,Low Clearance,Mystic,IA,52574,LCX,,ns unknown height clearance,low_unk_pushpin
200141,40.764438,-92.964123,Low Clearance,Mystic,IA,52574,LCX,,ns unknown height clearance,low_unk_pushpin
200142,41.389451,-92.641564,Low Clearance,New Sharon,IA,50207,LCX,,ns unknown height clearance,low_unk_pushpin
200143,41.705775,-93.053292,Low Clearance,Newton,IA,50208,LCX,,unmarked height clearance,low_unk_pushpin
200144,43.137184000000005,-93.009302,Low Clearance,Nora Springs,IA,50458,LCX,,unmarked height clearance,low_unk_pushpin
200145,41.010901000000004,-93.658118,Low Clearance,Osceola,IA,50213,LCX,,ns unknown height clearance,low_unk_pushpin
200146,41.026851,-93.794453,Low Clearance,Osceola,IA,50213,LCX,,unmarked height clearance,low_unk_pushpin
200147,41.038164,-93.733287,Low Clearance,Osceola,IA,50213,LCX,,ns unknown height clearance,low_unk_pushpin
200148,41.0359585,-93.7672788,Low Clearance,Osceola,IA,50213,LCX,,ns unknown height clearance,low_unk_pushpin
200149,41.311153000000004,-92.652072,Low Clearance,Oskaloosa,IA,52577,LCX,,ns unknown height clearance,low_unk_pushpin
200150,41.285919,-92.645463,Low Clearance,Oskaloosa,IA,52577,LCX,,unmarked height clearance,low_unk_pushpin
200151,41.3533688,-93.3002686,Low Clearance,Pleasantville,IA,50225,LCX,,ns unknown height clearance,low_unk_pushpin
200152,41.439844,-93.30077299999999,Low Clearance,Pleasantville,IA,50225,LCX,,ns unknown height clearance,low_unk_pushpin
200153,41.0387816,-94.54999790000001,Low Clearance,Prescott,IA,50859,LCX,,ns unknown height clearance,low_unk_pushpin
200154,42.310443,-93.395386,Low Clearance,Radcliffe,IA,50230,LCX,,unmarked height clearance,low_unk_pushpin
200155,41.014102,-95.308638,Low Clearance,Red Oak,IA,51566,LCX,,ns unknown height clearance,low_unk_pushpin
200156,41.002818,-95.252034,Low Clearance,Red Oak,IA,51566,LCX,,ns unknown height clearance,low_unk_pushpin
200157,41.00979,-95.19481800000001,Low Clearance,Red Oak,IA,51566,LCX,,ns unknown height clearance,low_unk_pushpin
200169,40.980812,-95.11876,Low Clearance,Stanton,IA,51573,LCX,,ns unknown height clearance,low_unk_pushpin
200170,40.972719,-95.079634,Low Clearance,Stanton,IA,51573,LCX,,ns unknown height clearance,low_unk_pushpin
200171,42.638579,-95.186222,Low Clearance,Storm Lake,IA,50588,LCX,,unmarked height clearance,low_unk_pushpin
200172,40.987083,-95.137948,Low Clearance,Villisca,IA,51573,LCX,,ns unknown height clearance,low_unk_pushpin
200173,40.925395,-94.977311,Low Clearance,Villisca,IA,50864,LCX,,ns unknown height clearance,low_unk_pushpin
200174,40.934151,-95.004521,Low Clearance,Villisca,IA,50864,LCX,,ns unknown height clearance,low_unk_pushpin
200175,41.408026,-95.25123599999999,Low Clearance,Walnut,IA,51577,LCX,,ns unknown height clearance,low_unk_pushpin
200176,42.510562,-92.336715,Low Clearance,Waterloo,IA,50703,LCX,,unmarked height clearance,low_unk_pushpin
200177,42.507273,-92.37338000000001,Low Clearance,Waterloo,IA,50701,LCX,,unmarked height clearance,low_unk_pushpin
200178,42.714911,-92.483509,Low Clearance,Waverly,IA,50677,LCX,,unmarked height clearance,low_unk_pushpin
200179,42.693224,-92.482899,Low Clearance,Waverly,IA,50677,LCX,,unmarked height clearance,low_unk_pushpin
200180,42.471419,-93.81344200000001,Low Clearance,Webster City,IA,50595,LCX,,unmarked height clearance,low_unk_pushpin
200181,42.44913,-93.797679,Low Clearance,Webster City,IA,50595,LCX,,unmarked height clearance,low_unk_pushpin
200182,41.697088,-95.745071,Low Clearance,Woodbine,IA,51579,LCX,,ns unknown height clearance,low_unk_pushpin
200183,41.687158000000004,-95.744538,Low Clearance,Woodbine,IA,51579,LCX,,ns unknown height clearance,low_unk_pushpin
200184,41.007706,-93.634757,Low Clearance,Woodburn,IA,50275,LCX,,ns unknown height clearance,low_unk_pushpin
200185,39.021718,-96.278602,Low Clearance,Alma,KS,66401,LCX,,unmarked height clearance,low_unk_pushpin
200186,38.976541999999995,-96.344571,Low Clearance,Alma,KS,66401,LCX,,ns unknown height clearance,low_unk_pushpin
200187,38.855422999999995,-96.52021500000001,Low Clearance,Alta Vista,KS,66834,LCX,,ns unknown height clearance,low_unk_pushpin
200188,37.238133000000005,-98.25720600000001,Low Clearance,Attica,KS,67009,LCX,,ns unknown height clearance,low_unk_pushpin
200189,39.437497,-97.521459,Low Clearance,Aurora ,KS,67417,LCX,,unmarked height clearance,low_unk_pushpin
200190,39.833905,-97.595812,Low Clearance,Belleville,KS,66935,LCX,,ns unknown height clearance,low_unk_pushpin
200191,39.899161,-96.768878,Low Clearance,Bremen,KS,66412,LCX,,ns unknown height clearance,low_unk_pushpin
200192,39.904151,-96.787806,Low Clearance,Bremen,KS,66412,LCX,,unmarked height clearance,low_unk_pushpin
200193,37.313454,-96.78876899999999,Low Clearance,Burden,KS,67019,LCX,,ns unknown height clearance,low_unk_pushpin
200194,37.645687,-95.479558,Low Clearance,Chanute,KS,66720,LCX,,unmarked height clearance,low_unk_pushpin
200195,37.689163,-95.479448,Low Clearance,Chanute,KS,66720,LCX,,unmarked height clearance,low_unk_pushpin
200196,37.725653,-95.47101500000001,Low Clearance,Chanute,KS,66720,LCX,,unmarked height clearance,low_unk_pushpin
200197,37.662248999999996,-95.47946999999999,Low Clearance,Chanute,KS,66720,LCX,,unmarked height clearance,low_unk_pushpin
200198,37.703634,-95.4792,Low Clearance,Chanute,KS,66720,LCX,,ns unknown height clearance,low_unk_pushpin
200199,37.659898,-95.47946999999999,Low Clearance,Chanute,KS,66720,LCX,,unmarked height clearance,low_unk_pushpin
200200,37.674789000000004,-95.479496,Low Clearance,Chanute,KS,66720,LCX,,unmarked height clearance,low_unk_pushpin
200201,37.682009,-95.47942900000001,Low Clearance,Chanute,KS,66720,LCX,,unmarked height clearance,low_unk_pushpin
200202,37.030389,-95.632345,Low Clearance,Coffeyville,KS,67337,LCX,,unmarked height clearance,low_unk_pushpin
200203,39.231018,-95.95326899999999,Low Clearance,Delia,KS,66418,LCX,,unmarked height clearance,low_unk_pushpin
200204,39.217165,-95.929474,Low Clearance,Delia,KS,66418,LCX,,unmarked height clearance,low_unk_pushpin
200205,38.46371,-97.260896,Low Clearance,Durham,KS,67438,LCX,,unmarked height clearance,low_unk_pushpin
200206,37.831979,-96.844433,Low Clearance,El Dorado,KS,67042,LCX,,unmarked height clearance,low_unk_pushpin
200207,37.817,-96.840535,Low Clearance,El Dorado,KS,67042,LCX,,unmarked height clearance,low_unk_pushpin
200208,37.835377,-96.849672,Low Clearance,El Dorado,KS,67042,LCX,,unmarked height clearance,low_unk_pushpin
200209,37.569932,-97.350138,Low Clearance,Haysville,KS,67060,LCX,,unmarked height clearance,low_unk_pushpin
200210,37.564384999999994,-97.351569,Low Clearance,Haysville,KS,67060,LCX,,unmarked height clearance,low_unk_pushpin
200211,39.906612,-95.582738,Low Clearance,Hiawatha,KS,66434,LCX,,ns unknown height clearance,low_unk_pushpin
200212,38.473183,-97.243045,Low Clearance,Hillsboro,KS,67063,LCX,,unmarked height clearance,low_unk_pushpin
200213,37.239647,-95.68389300000001,Low Clearance,Independence,KS,67301,LCX,,ns unknown height clearance,low_unk_pushpin
200214,37.233340999999996,-95.70106700000001,Low Clearance,Independence,KS,67301,LCX,,unmarked height clearance,low_unk_pushpin
200215,37.232354,-95.706603,Low Clearance,Independence,KS,67301,LCX,,unmarked height clearance,low_unk_pushpin
200216,37.980357,-95.391047,Low Clearance,Iola,KS,66749,LCX,,ns unknown height clearance,low_unk_pushpin
200217,39.572717,-95.28354200000001,Low Clearance,Lancaster,KS,66041,LCX,,ns unknown height clearance,low_unk_pushpin
200218,39.80316,-98.654198,Low Clearance,Lebanon,KS,66952,LCX,,ns unknown height clearance,low_unk_pushpin
200219,38.475,-95.728787,Low Clearance,Lebo,KS,66856,LCX,,ns unknown height clearance,low_unk_pushpin
200220,38.95627,-94.746827,Low Clearance,Lenexa,KS,66215,LCX,,ns unknown height clearance,low_unk_pushpin
200221,37.387401000000004,-96.054144,Low Clearance,Longton,KS,67352,LCX,,ns unknown height clearance,low_unk_pushpin
200222,39.808184000000004,-98.25041,Low Clearance,Mankato,KS,66956,LCX,,ns unknown height clearance,low_unk_pushpin
200223,39.089259000000006,-96.005928,Low Clearance,Maple Hill,KS,66507,LCX,,unmarked height clearance,low_unk_pushpin
200224,38.184025,-96.570753,Low Clearance,Matfield Green,KS,66862,LCX,,ns unknown height clearance,low_unk_pushpin
200225,38.156717,-96.56404599999999,Low Clearance,Matfield Green,KS,66862,LCX,,unmarked height clearance,low_unk_pushpin
200226,38.514229,-95.624475,Low Clearance,Melvern,KS,66510,LCX,,ns unknown height clearance,low_unk_pushpin
200227,38.496385,-95.65639399999999,Low Clearance,Melvern,KS,66510,LCX,,ns unknown height clearance,low_unk_pushpin
200228,37.4931177,-95.7331604,Low Clearance,Neodesha,KS,66757,LCX,,unmarked high height clearance,low_unk_pushpin
200229,38.883668,-94.801445,Low Clearance,Olathe,KS,66061,LCX,,unmarked height clearance,low_unk_pushpin
200230,39.418437,-96.150085,Low Clearance,Onaga,KS,66521,LCX,,unmarked height clearance,low_unk_pushpin
200231,38.403745,-94.95792900000001,Low Clearance,Osawatomie,KS,66064,LCX,,ns unknown height clearance,low_unk_pushpin
200232,38.240732,-94.998122,Low Clearance,Parker,KS,66072,LCX,,ns unknown height clearance,low_unk_pushpin
200233,37.337684,-95.26481899999999,Low Clearance,Parsons,KS,67357,LCX,,unmarked height clearance,low_unk_pushpin
200234,39.837756,-99.59003100000001,Low Clearance,Phillipsburg,KS,67661,LCX,,ns unknown height clearance,low_unk_pushpin
200235,39.81819,-97.689149,Low Clearance,Scandia,KS,66966,LCX,,ns unknown height clearance,low_unk_pushpin
200236,39.800458,-97.75470200000001,Low Clearance,Scandia,KS,66966,LCX,,ns unknown height clearance,low_unk_pushpin
200237,39.777947999999995,-98.748622,Low Clearance,Smith Center,KS,66967,LCX,,ns unknown height clearance,low_unk_pushpin
200238,39.757704,-98.879374,Low Clearance,Smith Center,KS,66967,LCX,,ns unknown height clearance,low_unk_pushpin
200239,38.723778,-94.814593,Low Clearance,Spring Hill,KS,66083,LCX,,ns unknown height clearance,low_unk_pushpin
200240,38.694263,-94.829034,Low Clearance,Spring Hill,KS,66083,LCX,,ns unknown height clearance,low_unk_pushpin
200241,39.061098,-95.66050899999999,Low Clearance,Topeka,KS,66616,LCX,,unmarked height clearance,low_unk_pushpin
200242,39.599554,-96.295586,Low Clearance,Vermillion,KS,66544,LCX,,ns unknown height clearance,low_unk_pushpin
200243,39.580657,-96.28620699999999,Low Clearance,Vermillion,KS,66544,LCX,,ns unknown height clearance,low_unk_pushpin
200244,39.556059000000005,-96.27722,Low Clearance,Vermillion,KS,66544,LCX,,ns unknown height clearance,low_unk_pushpin
200245,39.551149,-96.267498,Low Clearance,Vermillion,KS,66544,LCX,,ns unknown height clearance,low_unk_pushpin
200246,38.222547999999996,-95.336578,Low Clearance,Welda,KS,66091,LCX,,ns unknown height clearance,low_unk_pushpin
200247,37.263078,-97.366785,Low Clearance,Wellington,KS,67152,LCX,,unmarked height clearance,low_unk_pushpin
200248,38.185334999999995,-95.481066,Low Clearance,Westphalia,KS,66093,LCX,,ns unknown height clearance,low_unk_pushpin
200249,38.826939,-96.688985,Low Clearance,White City,KS,66872,LCX,,unmarked height clearance,low_unk_pushpin
200250,37.94123,-97.16875300000001,Low Clearance,Whitewater,KS,67154,LCX,,unmarked low height clearance,low_unk_pushpin
200251,37.013452,-83.817799,Low Clearance,Barbourville,KY,40906,LCX,,ns unknown height clearance,low_unk_pushpin
200252,37.572808,-83.707216,Low Clearance,Beattyville,KY,41311,LCX,,ns unknown height clearance,low_unk_pushpin
200253,39.099195,-84.478589,Low Clearance,Bellevue,KY,41073,LCX,,unmarked height clearance,low_unk_pushpin
200254,39.094456,-84.479951,Low Clearance,Bellevue,KY,41073,LCX,,unmarked height clearance,low_unk_pushpin
200255,37.548516,-84.30898,Low Clearance,Berea,KY,40403,LCX,,unmarked height clearance,low_unk_pushpin
200256,36.999321,-86.44078,Low Clearance,Bowling Green,KY,42101,LCX,,unmarked height clearance,low_unk_pushpin
200257,37.991417,-86.087916,Low Clearance,Brandenburg,KY,40108,LCX,,ns unknown height clearance,low_unk_pushpin
200258,38.36915,-85.443575,Low Clearance,Buckner,KY,40010,LCX,,unmarked height clearance,low_unk_pushpin
200259,36.995098999999996,-84.603076,Low Clearance,Burnside,KY,42519,LCX,,ns unknown height clearance,low_unk_pushpin
200260,36.954640000000005,-84.58059200000001,Low Clearance,Burnside,KY,42519,LCX,,unmarked height clearance,low_unk_pushpin
200261,37.018414,-88.44218000000001,Low Clearance,Calvert City,KY,42029,LCX,,ns unknown height clearance,low_unk_pushpin
200262,38.404429,-82.598467,Low Clearance,Catlettsburg,KY,41129,LCX,,unmarked low height clearance,low_unk_pushpin
200263,37.297964,-87.235776,Low Clearance,Central City,KY,42330,LCX,,ns unknown height clearance,low_unk_pushpin
200264,37.291864000000004,-87.126997,Low Clearance,Central City,KY,42330,LCX,,unmarked height clearance,low_unk_pushpin
200265,37.319936,-87.13798299999999,Low Clearance,Central City,KY,42330,LCX,,unmarked height clearance,low_unk_pushpin
200266,37.300681,-87.24046,Low Clearance,Central City,KY,42330,LCX,,ns unknown height clearance,low_unk_pushpin
200267,38.995878000000005,-84.54157099999999,Low Clearance,Covington,KY,41017,LCX,,unmarked height clearance,low_unk_pushpin
200268,39.074870000000004,-84.500215,Low Clearance,Covington,KY,41011,LCX,,unmarked height clearance,low_unk_pushpin
200269,39.041696,-84.514963,Low Clearance,Covington,KY,41015,LCX,,unmarked height clearance,low_unk_pushpin
200270,39.054945000000004,-84.500747,Low Clearance,Covington,KY,41015,LCX,,unmarked height clearance,low_unk_pushpin
200271,39.044191999999995,-84.511517,Low Clearance,Covington,KY,41015,LCX,,unmarked height clearance,low_unk_pushpin
200272,39.075202000000004,-84.4998,Low Clearance,Covington,KY,41011,LCX,,unmarked height clearance,low_unk_pushpin
200273,39.006629,-84.53749300000001,Low Clearance,Covington,KY,41017,LCX,,unmarked height clearance,low_unk_pushpin
200274,39.073264,-84.501726,Low Clearance,Covington,KY,41014,LCX,,unmarked height clearance,low_unk_pushpin
200275,39.083006,-84.549921,Low Clearance,Covington,KY,41011,LCX,,unmarked height clearance,low_unk_pushpin
200276,39.086257,-84.51751999999999,Low Clearance,Covington,KY,41011,LCX,,unmarked height clearance,low_unk_pushpin
200277,39.087583,-84.518451,Low Clearance,Covington,KY,41011,LCX,,unmarked height clearance,low_unk_pushpin
200278,39.086549,-84.517715,Low Clearance,Covington,KY,41011,LCX,,unmarked height clearance,low_unk_pushpin
200279,39.085399,-84.516788,Low Clearance,Covington,KY,41011,LCX,,unmarked height clearance,low_unk_pushpin
200280,38.328922999999996,-85.464348,Low Clearance,Crestwood,KY,40014,LCX,,unmarked height clearance,low_unk_pushpin
200281,37.084133,-87.494026,Low Clearance,Crofton,KY,42217,LCX,,ns unknown height clearance,low_unk_pushpin
200282,36.885375,-88.778145,Low Clearance,Cunningham,KY,42035,LCX,,unmarked height clearance,low_unk_pushpin
200283,39.112843,-84.468215,Low Clearance,Dayton,KY,41074,LCX,,unmarked height clearance,low_unk_pushpin
200284,37.093517,-88.101444,Low Clearance,Eddyville,KY,42038,LCX,,ns unknown height clearance,low_unk_pushpin
200285,37.710556,-85.835923,Low Clearance,Elizabethtown,KY,42701,LCX,,unmarked height clearance,low_unk_pushpin
200286,39.031703,-84.587283,Low Clearance,Erlanger,KY,41017,LCX,,unmarked height clearance,low_unk_pushpin
200287,39.02496,-84.592722,Low Clearance,Erlanger,KY,41018,LCX,,unmarked height clearance,low_unk_pushpin
200288,36.795136,-88.783641,Low Clearance,Fancy Farm,KY,42039,LCX,,unmarked height clearance,low_unk_pushpin
200289,36.812509999999996,-88.77964399999999,Low Clearance,Fancy Farm,KY,42039,LCX,,ns unknown height clearance,low_unk_pushpin
200290,38.978099,-84.611069,Low Clearance,Florence,KY,41042,LCX,,unmarked height clearance,low_unk_pushpin
200291,37.878492,-85.965652,Low Clearance,Fort Knox,KY,40121,LCX,,unmarked height clearance,low_unk_pushpin
200292,37.875087,-85.962835,Low Clearance,Fort Knox,KY,40121,LCX,,ns unknown height clearance,low_unk_pushpin
200293,37.896124,-85.959101,Low Clearance,Fort Knox,KY,40121,LCX,,ns unknown height clearance,low_unk_pushpin
200294,37.903409,-85.959087,Low Clearance,Fort Knox,KY,40121,LCX,,ns unknown height clearance,low_unk_pushpin
200295,37.881738,-85.95954300000001,Low Clearance,Fort Knox,KY,40121,LCX,,ns unknown height clearance,low_unk_pushpin
200296,37.890358,-85.95928599999999,Low Clearance,Fort Knox,KY,40121,LCX,,ns unknown height clearance,low_unk_pushpin
200297,39.064196,-84.558743,Low Clearance,Fort Wright,KY,41011,LCX,,unmarked height clearance,low_unk_pushpin
200298,38.173338,-84.789043,Low Clearance,Frankfort,KY,40601,LCX,,unmarked height clearance,low_unk_pushpin
200299,38.344592999999996,-84.529241,Low Clearance,Georgetown,KY,40324,LCX,,unmarked low height clearance,low_unk_pushpin
200300,38.149652,-84.535825,Low Clearance,Georgetown,KY,40324,LCX,,unmarked height clearance,low_unk_pushpin
200301,38.211546999999996,-84.54718299999999,Low Clearance,Georgetown,KY,40324,LCX,,unmarked height clearance,low_unk_pushpin
200302,37.949789,-86.81104,Low Clearance,Hawesville,KY,42348,LCX,,ns unknown height clearance,low_unk_pushpin
200303,37.843775,-87.591708,Low Clearance,Henderson ,KY,42420,LCX,,unmarked height clearance,low_unk_pushpin
200304,36.873191999999996,-88.778867,Low Clearance,Hickory,KY,42051,LCX,,unmarked height clearance,low_unk_pushpin
200305,36.825169,-87.451155,Low Clearance,Hopkinsville,KY,42240,LCX,,unmarked height clearance,low_unk_pushpin
200306,36.816508,-87.47169699999999,Low Clearance,Hopkinsville,KY,42240,LCX,,unmarked height clearance,low_unk_pushpin
200307,36.829879999999996,-87.452073,Low Clearance,Hopkinsville,KY,42240,LCX,,unmarked height clearance,low_unk_pushpin
200308,38.95505,-84.574336,Low Clearance,Independence,KY,41051,LCX,,unmarked height clearance,low_unk_pushpin
200309,38.975183,-84.54996899999999,Low Clearance,Independence,KY,41051,LCX,,unmarked height clearance,low_unk_pushpin
200310,37.188133,-82.894401,Low Clearance,Isom,kY,41824,LCX,,unmarked height clearance,low_unk_pushpin
200311,37.073551,-88.14440400000001,Low Clearance,Kuttawa,KY,42055,LCX,,unmarked height clearance,low_unk_pushpin
200312,37.087487,-88.1151,Low Clearance,Kuttawa,KY,42055,LCX,,unmarked height clearance,low_unk_pushpin
200313,37.049123,-88.166671,Low Clearance,Kuttawa,KY,42055,LCX,,unmarked height clearance,low_unk_pushpin
200314,37.48834,-86.264862,Low Clearance,Leitchfield,KY,42754,LCX,,unmarked height clearance,low_unk_pushpin
200315,38.116745,-84.52842700000001,Low Clearance,Lexington,KY,40511,LCX,,unmarked height clearance,low_unk_pushpin
200316,37.997946999999996,-84.5267,Low Clearance,Lexington,KY,40503,LCX,,unmarked height clearance,low_unk_pushpin
200317,38.042198,-84.510452,Low Clearance,Lexington,KY,40508,LCX,,unmarked height clearance,low_unk_pushpin
200318,38.015315,-84.523217,Low Clearance,Lexington,KY,40503,LCX,,unmarked height clearance,low_unk_pushpin
200319,38.025783000000004,-84.45353399999999,Low Clearance,Lexington,KY,40505,LCX,,unmarked height clearance,low_unk_pushpin
200320,37.992851,-84.528599,Low Clearance,Lexington,KY,40503,LCX,,unmarked height clearance,low_unk_pushpin
200321,38.256648,-85.485176,Low Clearance,Louisville,KY,40245,LCX,,unmarked height clearance,low_unk_pushpin
200322,38.19675,-85.625312,Low Clearance,Louisville,KY,40218,LCX,,unmarked height clearance,low_unk_pushpin
200323,38.083529999999996,-85.881026,Low Clearance,Louisville,KY,40272,LCX,,unmarked height clearance,low_unk_pushpin
200324,38.131459,-85.899077,Low Clearance,Louisville,KY,40258,LCX,,unmarked height clearance,low_unk_pushpin
200325,38.199044,-85.60301700000001,Low Clearance,Louisville,KY,40220,LCX,,unmarked height clearance,low_unk_pushpin
200326,38.235755,-85.768339,Low Clearance,Louisville,KY,40203,LCX,,unmarked height clearance,low_unk_pushpin
200327,39.096159,-84.542604,Low Clearance,Ludlow,KY,41016,LCX,,unmarked height clearance,low_unk_pushpin
200328,37.891802,-86.984041,Low Clearance,Maceo,KY,42355,LCX,,unmarked height clearance,low_unk_pushpin
200329,37.327093,-87.48174,Low Clearance,Madisonville,KY,42431,LCX,,unmarked height clearance,low_unk_pushpin
200330,37.340243,-87.57975400000001,Low Clearance,Madisonville,KY,42431,LCX,,unmarked height clearance,low_unk_pushpin
200331,37.307802,-87.467156,Low Clearance,Madisonville,KY,42431,LCX,,unmarked height clearance,low_unk_pushpin
200332,37.307376,-87.50855,Low Clearance,Madisonville,KY,42431,LCX,,unmarked height clearance,low_unk_pushpin
200333,36.740915,-88.787961,Low Clearance,Mayfield,KY,42066,LCX,,unmarked height clearance,low_unk_pushpin
200334,36.706407,-88.804506,Low Clearance,Mayfield,KY,42066,LCX,,ns unknown height clearance,low_unk_pushpin
200335,36.946692999999996,-88.765284,Low Clearance,Melber,KY,42069,LCX,,unmarked height clearance,low_unk_pushpin
200336,38.148424,-84.68134599999999,Low Clearance,Midway,KY,40347,LCX,,ns unknown height clearance,low_unk_pushpin
200337,37.932972,-84.5577,Low Clearance,Nicholasville,KY,40356,LCX,,unmarked height clearance,low_unk_pushpin
200338,37.878723,-84.59719399999999,Low Clearance,Nicholasville,KY,40356,LCX,,unmarked height clearance,low_unk_pushpin
200339,37.125475,-87.479148,Low Clearance,Nortonville,KY,42442,LCX,,ns unknown height clearance,low_unk_pushpin
200340,37.029387,-88.754696,Low Clearance,Paducah,KY,42001,LCX,,unmarked height clearance,low_unk_pushpin
200341,36.973240000000004,-88.75959300000001,Low Clearance,Paducah,KY,42001,LCX,,unmarked height clearance,low_unk_pushpin
200342,37.066522,-88.631715,Low Clearance,Paducah,KY,42003,LCX,,unmarked height clearance,low_unk_pushpin
200343,37.071954,-88.637876,Low Clearance,Paducah,KY,42001,LCX,,unmarked height clearance,low_unk_pushpin
200344,37.008896,-88.75596800000001,Low Clearance,Paducah,KY,42001,LCX,,unmarked height clearance,low_unk_pushpin
200345,38.215832,-84.248925,Low Clearance,Paris,KY,40361,LCX,,unmarked height clearance,low_unk_pushpin
200346,38.226707,-84.251448,Low Clearance,Paris,KY,40361,LCX,,unmarked height clearance,low_unk_pushpin
200347,37.104960999999996,-87.879873,Low Clearance,Princeton,KY,42445,LCX,,unmarked height clearance,low_unk_pushpin
200348,37.731074,-84.288915,Low Clearance,Richmond,KY,40475,LCX,,unmarked height clearance,low_unk_pushpin
200349,38.389596000000004,-84.53750500000001,Low Clearance,Sadieville,KY,40370,LCX,,unmarked height clearance,low_unk_pushpin
200350,38.214290000000005,-85.21853399999999,Low Clearance,Shelbyville,KY,40065,LCX,,unmarked height clearance,low_unk_pushpin
200351,38.206261,-85.264488,Low Clearance,Shelbyville,KY,40065,LCX,,unmarked height clearance,low_unk_pushpin
200352,38.688595,-84.88754200000001,Low Clearance,Sparta,KY,41086,LCX,,unmarked height clearance,low_unk_pushpin
200353,38.041449,-84.844176,Low Clearance,Versailles,KY,40383,LCX,,unmarked high height clearance,low_unk_pushpin
200354,38.841192,-84.616745,Low Clearance,Walton,KY,41094,LCX,,unmarked high height clearance,low_unk_pushpin
200355,38.841590000000004,-84.616534,Low Clearance,Walton,KY,41094,LCX,,unmarked height clearance,low_unk_pushpin
200356,38.857246999999994,-84.605995,Low Clearance,Walton,KY,41094,LCX,,unmarked height clearance,low_unk_pushpin
200357,36.598695,-88.854883,Low Clearance,Water Valley,KY,42085,LCX,,unmarked height clearance,low_unk_pushpin
200358,37.443061,-82.807633,Low Clearance,Wayland,KY,41666,LCX,,unmarked height clearance,low_unk_pushpin
200359,37.003144,-89.151326,Low Clearance,Wickliffe,KY,42087,LCX,,ns unknown height clearance,low_unk_pushpin
200360,37.024661,-89.165591,Low Clearance,Wickliffe,KY,42087,LCX,,ns unknown height clearance,low_unk_pushpin
200361,37.824349,-84.71743599999999,Low Clearance,Wilmore,KY,40390,LCX,,unmarked height clearance,low_unk_pushpin
200362,37.8186,-84.719105,Low Clearance,Wilmore,KY,40390,LCX,,unmarked height clearance,low_unk_pushpin
200363,37.927667,-84.102698,Low Clearance,Winchester,KY,40391,LCX,,ns unknown height clearance,low_unk_pushpin
200364,38.007314,-84.188848,Low Clearance,Winchester,KY,40391,LCX,,unmarked height clearance,low_unk_pushpin
200365,38.008783,-84.183911,Low Clearance,Winchester,KY,40391,LCX,,unmarked height clearance,low_unk_pushpin
200366,38.015499,-84.211352,Low Clearance,Winchester,KY,40391,LCX,,unmarked height clearance,low_unk_pushpin
200367,36.628956,-88.842768,Low Clearance,Wingo,KY,42088,LCX,,ns unknown height clearance,low_unk_pushpin
200368,43.558015999999995,-95.661291,Low Clearance,Bigelow,MN,56117,LCX,,unknown height clearance,low_unk_pushpin
200369,39.892711,-93.49090100000001,Low Clearance,Chula,MO,64635,LCX,,ns unknown height clearance,low_unk_pushpin
200370,38.895759999999996,-94.584068,Low Clearance,Kansas City,MO,64146,LCX,,unmarked med height clearance,low_unk_pushpin
200371,39.129917,-94.494469,Low Clearance,Kansas City,MO,64120,LCX,,unmarked med height clearance,low_unk_pushpin
200372,39.155695,-94.585987,Low Clearance,Kansas City,MO,64116,LCX,,unmarked 14 plus height clearance,low_unk_pushpin
200373,40.394482,-93.574738,Low Clearance,Princeton,MO,64673,LCX,,unmarked med height clearance,low_unk_pushpin
200374,33.823181,-88.51669100000001,Low Clearance,Aberdeen,MS,39730,LCX,,unmarked height clearance,low_unk_pushpin
200375,33.997633,-88.503941,Low Clearance,Amory,MS,38821,LCX,,unmarked height clearance,low_unk_pushpin
200376,33.481957,-88.451307,Low Clearance,Columbus,MS,39701,LCX,,unmarked height clearance,low_unk_pushpin
200377,34.932838000000004,-88.517482,Low Clearance,Corinth,MS,38834,LCX,,unmarked height clearance,low_unk_pushpin
200378,34.93517,-88.526698,Low Clearance,Corinth,MS,38834,LCX,,unmarked height clearance,low_unk_pushpin
200379,34.924118,-88.495414,Low Clearance,Corinth,MS,38834,LCX,,unmarked height clearance,low_unk_pushpin
200380,31.292575,-89.323166,Low Clearance,Hattiesburg,MS,39402,LCX,,unmarked height clearance,low_unk_pushpin
200381,31.304323999999998,-89.313523,Low Clearance,Hattiesburg,MS,39401,LCX,,unmarked height clearance,low_unk_pushpin
200382,34.832986,-89.994727,Low Clearance,Hernando,MS,38632,LCX,,unmarked height clearance,low_unk_pushpin
200383,34.812119,-88.198396,Low Clearance,Iuka,MS,38852,LCX,,unmarked height clearance,low_unk_pushpin
200384,31.097952000000003,-89.43144699999999,Low Clearance,Lumberton,MS,39455,LCX,,ns unknown height clearance,low_unk_pushpin
200385,32.33978,-89.151423,Low Clearance,Newton,MS,39345,LCX,,unmarked height clearance,low_unk_pushpin
200386,30.473482,-89.68415999999999,Low Clearance,Picayune,MS,39466,LCX,,unmarked height clearance,low_unk_pushpin
200387,34.166677,-88.702977,Low Clearance,Tupelo,MS,38801,LCX,,unmarked height clearance,low_unk_pushpin
200388,35.368409,-80.19712700000001,Low Clearance,Albemarle,NC,28001,LCX,,unmarked height clearance,low_unk_pushpin
200389,35.479609,-82.524491,Low Clearance,Arden,NC,28704,LCX,,unmarked height clearance,low_unk_pushpin
200390,35.474431,-82.51993399999999,Low Clearance,Arden,NC,28704,LCX,,unmarked height clearance,low_unk_pushpin
200391,35.549356,-82.52084029999999,Low Clearance,Asheville,NC,28803,LCX,,unmarked height clearance,low_unk_pushpin
200392,35.565404,-82.501983,Low Clearance,Asheville,NC,28803,LCX,,unmarked height clearance,low_unk_pushpin
200393,35.565665,-82.501181,Low Clearance,Asheville,NC,28805,LCX,,unmarked height clearance,low_unk_pushpin
200394,36.046059,-82.299114,Low Clearance,Bakersville,NC,28705,LCX,,unmarked height clearance,low_unk_pushpin
200395,35.257185,-81.04334899999999,Low Clearance,Belmont,NC,28012,LCX,,unmarked height clearance,low_unk_pushpin
200396,36.090783,-79.431585,Low Clearance,Burlington,NC,27217,LCX,,unmarked height clearance,low_unk_pushpin
200397,35.7901181,-78.7744617,Low Clearance,Cary,NC,27511,LCX,,unmarked height clearance,low_unk_pushpin
200398,35.224475,-80.841999,Low Clearance,Charlotte,NC,28202,LCX,,unmarked height clearance,low_unk_pushpin
200399,35.241126,-80.85064100000001,Low Clearance,Charlotte,NC,28202,LCX,,unmarked height clearance,low_unk_pushpin
200400,35.1529099,-80.8774672,Low Clearance,Charlotte,NC,28217,LCX,,unmarked height clearance,low_unk_pushpin
200401,35.22506,-80.924725,Low Clearance,Charlotte,NC,28208,LCX,,unmarked height clearance,low_unk_pushpin
200402,35.2236799,-80.8429978,Low Clearance,Charlotte,NC,28202,LCX,,unmarked height clearance,low_unk_pushpin
200403,35.13773270000001,-80.8766625,Low Clearance,Charlotte,NC,28217,LCX,,unmarked height clearance,low_unk_pushpin
200404,35.221609,-80.84643100000001,Low Clearance,Charlotte,NC,28202,LCX,,unmarked height clearance,low_unk_pushpin
200405,35.2252707,-80.8407021,Low Clearance,Charlotte,NC,28202,LCX,,unmarked height clearance,low_unk_pushpin
200406,35.1779962,-80.8790172,Low Clearance,Charlotte,NC,28217,LCX,,unmarked height clearance,low_unk_pushpin
200407,35.288357399999995,-80.72917740000001,Low Clearance,Charlotte,NC,28213,LCX,,unmarked height clearance,low_unk_pushpin
200408,35.2466271,-80.85425450000001,Low Clearance,Charlotte,NC,28216,LCX,,unmarked height clearance,low_unk_pushpin
200409,35.102781799999995,-80.88236090000001,Low Clearance,Charlotte,NC,28273,LCX,,unmarked height clearance,low_unk_pushpin
200410,35.163041899999996,-80.87737059999999,Low Clearance,Charlotte,NC,28217,LCX,,unmarked height clearance,low_unk_pushpin
200411,35.2204726,-80.8484358,Low Clearance,Charlotte,NC,28202,LCX,,unmarked height clearance,low_unk_pushpin
200412,35.3121292,-80.70717540000001,Low Clearance,Charlotte,NC,28213,LCX,,unmarked height clearance,low_unk_pushpin
200413,35.2221994,-80.8680085,Low Clearance,Charlotte,NC,28208,LCX,,unmarked height clearance,low_unk_pushpin
200414,35.1747682,-80.88639640000001,Low Clearance,Charlotte,NC,28217,LCX,,unmarked height clearance,low_unk_pushpin
200415,35.10883079999999,-80.9282661,Low Clearance,Charlotte,NC,28273,LCX,,unmarked height clearance,low_unk_pushpin
200416,35.27668189999999,-80.809024,Low Clearance,Charlotte,NC,28206,LCX,,unmarked height clearance,low_unk_pushpin
200417,35.225381,-80.929158,Low Clearance,Charlotte,NC,28208,LCX,,unmarked height clearance,low_unk_pushpin
200418,35.2042813,-80.80687929999999,Low Clearance,Charlotte,NC,28205,LCX,,unmarked height clearance,low_unk_pushpin
200419,35.150526,-80.745834,Low Clearance,Charlotte,NC,28212,LCX,,unmarked height clearance,low_unk_pushpin
200420,35.165454100000005,-80.87727509999999,Low Clearance,Charlotte,NC,28217,LCX,,unmarked height clearance,low_unk_pushpin
200421,35.1654275,-80.88042829999999,Low Clearance,Charlotte,NC,28217,LCX,,unmarked height clearance,low_unk_pushpin
200422,35.335227200000006,-80.82413220000001,Low Clearance,Charlotte,NC,28269,LCX,,unmarked height clearance,low_unk_pushpin
200423,35.6638782,-78.4714747,Low Clearance,Clayton,NC,27520,LCX,,unmarked height clearance,low_unk_pushpin
200424,35.726723,-80.64169100000001,Low Clearance,Cleveland,NC,27013,LCX,,ns unknown height clearance,low_unk_pushpin
200425,35.7183079,-80.6441025,Low Clearance,Cleveland,NC,27013,LCX,,unmarked height clearance,low_unk_pushpin
200426,35.444982200000005,-80.6124915,Low Clearance,Concord,NC,28025,LCX,,unmarked height clearance,low_unk_pushpin
200427,35.7409422,-81.52059090000002,Low Clearance,Connelly Springs,NC,28612,LCX,,unmarked height clearance,low_unk_pushpin
200428,35.713655700000004,-81.2295638,Low Clearance,Conover,NC,28613,LCX,,unmarked height clearance,low_unk_pushpin
200429,35.68748,-81.198498,Low Clearance,Conover,NC,28613,LCX,,unmarked height clearance,low_unk_pushpin
200430,36.015046000000005,-78.93603900000001,Low Clearance,Durham,NC,27705,LCX,,unmarked height clearance,low_unk_pushpin
200431,35.891425,-78.84996269999999,Low Clearance,Durham,NC,27703,LCX,,unmarked height clearance,low_unk_pushpin
200432,35.883182,-78.851427,Low Clearance,Durham,NC,27709,LCX,,unmarked height clearance,low_unk_pushpin
200433,35.924726,-78.852412,Low Clearance,Durham,NC,27713,LCX,,unmarked height clearance,low_unk_pushpin
200434,36.01849,-78.950013,Low Clearance,Durham,NC,27705,LCX,,unmarked height clearance,low_unk_pushpin
200435,36.0763118,-79.1560705,Low Clearance,Efland,NC,27243,LCX,,unmarked height clearance,low_unk_pushpin
200436,35.138558,-78.95080300000001,Low Clearance,Fayetteville,NC,28311,LCX,,unmarked height clearance,low_unk_pushpin
200437,36.101420000000005,-78.45688299999999,Low Clearance,Franklinton,NC,27525,LCX,,unmarked height clearance,low_unk_pushpin
200438,35.598285,-78.75675799999999,Low Clearance,Fuquay Varina,NC,27526,LCX,,unmarked height clearance,low_unk_pushpin
200439,35.699506,-78.579798,Low Clearance,Garner,NC,27529,LCX,,unmarked height clearance,low_unk_pushpin
200440,35.276845200000004,-81.2293348,Low Clearance,Gastonia,NC,28052,LCX,,unmarked height clearance,low_unk_pushpin
200441,35.272271999999994,-81.158762,Low Clearance,Gastonia,NC,28054,LCX,,unmarked height clearance,low_unk_pushpin
200442,36.087737,-79.370352,Low Clearance,Graham,NC,27253,LCX,,unmarked height clearance,low_unk_pushpin
200443,36.029329,-79.8861,Low Clearance,Greensboro,NC,27407,LCX,,unmarked height clearance,low_unk_pushpin
200444,36.056605,-79.855239,Low Clearance,Greensboro,NC,27407,LCX,,unmarked height clearance,low_unk_pushpin
200445,36.087058,-79.699773,Low Clearance,Greensboro,NC,27405,LCX,,unmarked height clearance,low_unk_pushpin
200446,36.059707,-79.842795,Low Clearance,Greensboro,NC,27407,LCX,,unmarked height clearance,low_unk_pushpin
200447,36.072604999999996,-79.766276,Low Clearance,Greensboro,NC,27401,LCX,,unmarked height clearance,low_unk_pushpin
200448,36.061839,-79.860454,Low Clearance,Greensboro,NC,27407,LCX,,unmarked height clearance,low_unk_pushpin
200449,35.601263,-77.39108900000001,Low Clearance,Greenville,NC,27834,LCX,,unmarked height clearance,low_unk_pushpin
200450,35.599852,-77.370671,Low Clearance,Greenville,NC,27858,LCX,,unmarked height clearance,low_unk_pushpin
200451,34.909814000000004,-79.68132,Low Clearance,Hamlet,NC,28345,LCX,,ns unknown height clearance,low_unk_pushpin
200452,34.879135999999995,-79.692933,Low Clearance,Hamlet,NC,28345,LCX,,unmarked height clearance,low_unk_pushpin
200453,35.736267,-81.324591,Low Clearance,Hickory,NC,28602,LCX,,unmarked height clearance,low_unk_pushpin
200454,35.732209000000005,-81.291228,Low Clearance,Hickory,NC,28601,LCX,,unmarked height clearance,low_unk_pushpin
200455,35.732415,-81.33411600000001,Low Clearance,Hickory,NC,28602,LCX,,unmarked height clearance,low_unk_pushpin
200456,35.7309906,-81.36456679999999,Low Clearance,Hickory,NC,28602,LCX,,unmarked height clearance,low_unk_pushpin
200457,35.93039,-80.03383659999999,Low Clearance,High Point,NC,27260,LCX,,unmarked height clearance,low_unk_pushpin
200458,36.072525,-79.12921300000001,Low Clearance,Hillsborough,NC,27278,LCX,,ns unknown height clearance,low_unk_pushpin
200459,35.997245,-79.92539599999999,Low Clearance,Jamestown,NC,27282,LCX,,unmarked height clearance,low_unk_pushpin
200460,35.488847,-80.627174,Low Clearance,Kannapolis,NC,28081,LCX,,unmarked height clearance,low_unk_pushpin
200461,35.5046473,-80.61872199999999,Low Clearance,Kannapolis,NC,28083,LCX,,unmarked height clearance,low_unk_pushpin
200462,35.249619,-81.335603,Low Clearance,Kings Mountain,NC,28086,LCX,,unmarked height clearance,low_unk_pushpin
200463,36.168561,-78.445387,Low Clearance,Kittrell,NC,27544,LCX,,ns unknown height clearance,low_unk_pushpin
200464,35.780259,-80.26051899999999,Low Clearance,Lexington,NC,27292,LCX,,unmarked height clearance,low_unk_pushpin
200465,35.887755600000006,-80.25067359999998,Low Clearance,Lexington,NC,27295,LCX,,unmarked height clearance,low_unk_pushpin
200466,35.8729917,-80.2489809,Low Clearance,Lexington,NC,27295,LCX,,unmarked height clearance,low_unk_pushpin
200467,34.936045,-79.893816,Low Clearance,Lilesville,NC,28091,LCX,,unmarked height clearance,low_unk_pushpin
200468,35.477139,-81.22924300000001,Low Clearance,Lincolnton,NC,28092,LCX,,unmarked height clearance,low_unk_pushpin
200469,35.260914,-81.09894200000001,Low Clearance,Lowell,NC,28098,LCX,,unmarked height clearance,low_unk_pushpin
200470,35.698004,-81.98195799999999,Low Clearance,Marion,NC,28752,LCX,,unmarked height clearance,low_unk_pushpin
200471,35.878293,-81.940228,Low Clearance,Marion,NC,28752,LCX,,unmarked height clearance,low_unk_pushpin
200472,35.546065999999996,-81.955794,Low Clearance,Marion,NC,28752,LCX,,ns unknown height clearance,low_unk_pushpin
200473,35.719556,-81.990892,Low Clearance,Marion,NC,28752,LCX,,unmarked height clearance,low_unk_pushpin
200474,35.471308,-82.518574,Low Clearance,Mills River,NC,28759,LCX,,unmarked height clearance,low_unk_pushpin
200475,35.219013000000004,-80.648764,Low Clearance,Mint Hill,NC,28227,LCX,,unmarked height clearance,low_unk_pushpin
200476,35.192389899999995,-81.8413948,Low Clearance,Mooresboro,NC,28114,LCX,,unmarked height clearance,low_unk_pushpin
200477,35.213547999999996,-80.02283299999999,Low Clearance,Mt Gilead,NC,27306,LCX,,unmarked height clearance,low_unk_pushpin
200478,35.29274,-79.966849,Low Clearance,Mt Gilead,NC,27306,LCX,,unmarked height clearance,low_unk_pushpin
200479,35.2976032,-81.0059894,Low Clearance,Mt Holly,NC,28120,LCX,,unmarked height clearance,low_unk_pushpin
200480,35.296965,-81.01254200000001,Low Clearance,Mt Holly,NC,28120,LCX,,unmarked height clearance,low_unk_pushpin
200481,35.359173,-80.983233,Low Clearance,Mt Holly,NC,28120,LCX,,unmarked height clearance,low_unk_pushpin
200482,35.68202,-81.216774,Low Clearance,Newton,NC,28658,LCX,,unmarked height clearance,low_unk_pushpin
200483,35.228095,-80.15100699999999,Low Clearance,Norwood,NC,28128,LCX,,unmarked height clearance,low_unk_pushpin
200484,35.23044,-80.27051800000001,Low Clearance,Oakboro,NC,28129,LCX,,unmarked height clearance,low_unk_pushpin
200485,35.648844,-82.238805,Low Clearance,Old Fort,NC,28762,LCX,,ns unknown height clearance,low_unk_pushpin
200486,35.653434000000004,-82.245869,Low Clearance,Old Fort,NC,28762,LCX,,ns unknown height clearance,low_unk_pushpin
200487,36.484800299999996,-79.4876704,Low Clearance,Pelham,NC,27311,LCX,,unmarked height clearance,low_unk_pushpin
200488,35.102030400000004,-80.88261240000001,Low Clearance,Pineville,NC,28134,LCX,,unmarked height clearance,low_unk_pushpin
200489,36.514478999999994,-79.46946899999999,Low Clearance,Providence,NC,27315,LCX,,unmarked height clearance,low_unk_pushpin
200490,35.855813399999995,-78.6002286,Low Clearance,Raleigh,NC,27616,LCX,,unmarked height clearance,low_unk_pushpin
200491,35.801770700000006,-78.62688659999999,Low Clearance,Raleigh,NC,27604,LCX,,unmarked height clearance,low_unk_pushpin
200492,35.786609000000006,-78.674798,Low Clearance,Raleigh,NC,27607,LCX,,unmarked height clearance,low_unk_pushpin
200493,35.817648999999996,-78.617666,Low Clearance,Raleigh,NC,27609,LCX,,unmarked height clearance,low_unk_pushpin
200494,35.813533,-78.61989200000001,Low Clearance,Raleigh,NC,27608,LCX,,unmarked height clearance,low_unk_pushpin
200495,35.769172,-78.64090300000001,Low Clearance,Raleigh,NC,27601,LCX,,unmarked height clearance,low_unk_pushpin
200496,35.771692,-78.642829,Low Clearance,Raleigh,NC,27601,LCX,,unmarked height clearance,low_unk_pushpin
200497,35.755771,-78.657237,Low Clearance,Raleigh,NC,27603,LCX,,unmarked height clearance,low_unk_pushpin
200498,35.773076,-78.643976,Low Clearance,Raleigh,NC,27601,LCX,,unmarked height clearance,low_unk_pushpin
200499,35.8599271,-78.59734329999999,Low Clearance,Raleigh,NC,27609,LCX,,unmarked height clearance,low_unk_pushpin
200500,35.789609000000006,-78.74718100000001,Low Clearance,Raleigh,NC,27607,LCX,,unmarked height clearance,low_unk_pushpin
200501,35.786234,-78.64615699999999,Low Clearance,Raleigh,NC,27603,LCX,,unmarked height clearance,low_unk_pushpin
200502,35.787269,-78.646019,Low Clearance,Raleigh,NC,27603,LCX,,unmarked height clearance,low_unk_pushpin
200503,35.78488,-78.64622,Low Clearance,Raleigh,NC,27603,LCX,,unmarked height clearance,low_unk_pushpin
200504,35.7967146,-78.64250140000001,Low Clearance,Raleigh,NC,27607,LCX,,unmarked height clearance,low_unk_pushpin
200505,35.804499,-78.62526899999999,Low Clearance,Raleigh,NC,27603,LCX,,unmarked height clearance,low_unk_pushpin
200506,35.774283000000004,-78.656051,Low Clearance,Raleigh,NC,27603,LCX,,unmarked height clearance,low_unk_pushpin
200507,36.3766554,-79.6563877,Low Clearance,Reidsville,NC,27320,LCX,,unmarked height clearance,low_unk_pushpin
200508,36.433743,-79.5727,Low Clearance,Reidsville,NC,27320,LCX,,unmarked height clearance,low_unk_pushpin
200509,35.65058,-80.498038,Low Clearance,Salisbury,NC,28144,LCX,,unmarked height clearance,low_unk_pushpin
200510,35.661479,-80.47479399999999,Low Clearance,Salisbury,NC,28144,LCX,,unmarked height clearance,low_unk_pushpin
200511,35.676413000000004,-80.47972800000001,Low Clearance,Salisbury,NC,28144,LCX,,unmarked height clearance,low_unk_pushpin
200512,35.2344838,-82.3919566,Low Clearance,Saluda,NC,28773,LCX,,unmarked height clearance,low_unk_pushpin
200513,35.5411239,-79.1712723,Low Clearance,Sanford,NC,27330,LCX,,unmarked height clearance,low_unk_pushpin
200514,35.472894000000004,-79.17648,Low Clearance,Sanford,NC,27330,LCX,,unmarked height clearance,low_unk_pushpin
200515,35.327839000000004,-81.47679699999999,Low Clearance,Shelby,NC,28150,LCX,,unmarked high height clearance,low_unk_pushpin
200516,35.297999,-81.535031,Low Clearance,Shelby,NC,28150,LCX,,unmarked height clearance,low_unk_pushpin
200517,35.4042429,-79.7691262,Low Clearance,Star,NC,27356,LCX,,unmarked height clearance,low_unk_pushpin
200518,35.794734999999996,-80.93244990000001,Low Clearance,Statesville,NC,28677,LCX,,unmarked height clearance,low_unk_pushpin
200519,36.532499,-79.9138791,Low Clearance,Stoneville,NC,27048,LCX,,unmarked height clearance,low_unk_pushpin
200520,35.886315,-80.073778,Low Clearance,Thomasville,NC,27360,LCX,,unmarked height clearance,low_unk_pushpin
200521,36.194427000000005,-80.162428,Low Clearance,Walkertown,NC,27051,LCX,,unmarked height clearance,low_unk_pushpin
200522,36.4286463,-77.5967394,Low Clearance,Weldon,NC,27890,LCX,,unmarked height clearance,low_unk_pushpin
200523,36.427971,-77.597738,Low Clearance,Weldon,NC,27890,LCX,,unmarked height clearance,low_unk_pushpin
200524,36.09812,-80.26785749999999,Low Clearance,Winston-Salem,NC,27103,LCX,,unmarked height clearance,low_unk_pushpin
200525,36.066135700000004,-80.30764140000001,Low Clearance,Winston-Salem,NC,27103,LCX,,unmarked height clearance,low_unk_pushpin
200526,36.062482200000005,-80.22918840000001,Low Clearance,Winston-Salem,NC,27107,LCX,,unmarked height clearance,low_unk_pushpin
200527,36.0818649,-80.2300605,Low Clearance,Winston-Salem,NC,27127,LCX,,unmarked height clearance,low_unk_pushpin
200528,36.0928789,-80.2314485,Low Clearance,Winston-Salem,NC,27101,LCX,,unmarked height clearance,low_unk_pushpin
200529,36.1067209,-80.25090329999999,Low Clearance,Winston-Salem,NC,27101,LCX,,unmarked height clearance,low_unk_pushpin
200530,36.104854700000004,-80.25753900000001,Low Clearance,Winston-Salem,NC,27101,LCX,,unmarked height clearance,low_unk_pushpin
200531,36.0924693,-80.23395500000001,Low Clearance,Winston-Salem,NC,27101,LCX,,unmarked height clearance,low_unk_pushpin
200532,36.0783035,-80.3006693,Low Clearance,Winston-Salem,NC,27103,LCX,,unmarked height clearance,low_unk_pushpin
200533,35.228235999999995,-82.405457,Low Clearance,Zirconia,NC,28790,LCX,,ns unknown height clearance,low_unk_pushpin
200534,42.415982,-96.850031,Low Clearance,Allen,NE,68710,LCX,,ns unknown height clearance,low_unk_pushpin
200535,42.418558000000004,-96.90108199999999,Low Clearance,Allen,NE,68710,LCX,,ns unknown height clearance,low_unk_pushpin
200536,42.418048999999996,-96.842481,Low Clearance,Allen,NE,68710,LCX,,unmarked height clearance,low_unk_pushpin
200537,41.551056,-96.105407,Low Clearance,Blair,NE,68008,LCX,,unmarked height clearance,low_unk_pushpin
200538,41.714065000000005,-103.108362,Low Clearance,Bridgeport,NE,69336,LCX,,ns unknown height clearance,low_unk_pushpin
200539,42.68673,-103.410279,Low Clearance,Crawford,NE,69339,LCX,,unmarked height clearance,low_unk_pushpin
200540,41.822178,-100.100999,Low Clearance,Dunning,NE,68833,LCX,,unmarked height clearance,low_unk_pushpin
200541,40.936045,-98.339875,Low Clearance,Grand Island,NE,68801,LCX,,unmarked height clearance,low_unk_pushpin
200542,40.930856,-98.336036,Low Clearance,Grand Island,NE,68801,LCX,,unmarked height clearance,low_unk_pushpin
200543,40.927503,-98.333196,Low Clearance,Grand Island,NE,68801,LCX,,unmarked height clearance,low_unk_pushpin
200544,40.582497,-98.344585,Low Clearance,Hastings,NE,68901,LCX,,unmarked height clearance,low_unk_pushpin
200545,40.768113,-96.682764,Low Clearance,Lincoln,NE,68512,LCX,,unmarked height clearance,low_unk_pushpin
200546,40.98884,-98.010538,Low Clearance,Marquette,NE,68854,LCX,,ns unknown height clearance,low_unk_pushpin
200547,40.774104,-97.04468,Low Clearance,Milford,NE,68405,LCX,,unmarked height clearance,low_unk_pushpin
200548,40.774291999999996,-96.97814,Low Clearance,Milford,NE,68405,LCX,,unmarked height clearance,low_unk_pushpin
200549,40.773824,-97.028684,Low Clearance,Milford,NE,68405,LCX,,unmarked height clearance,low_unk_pushpin
200550,40.504725,-98.942226,Low Clearance,Minden,NE,68959,LCX,,unmarked low height clearance,low_unk_pushpin
200551,41.966190999999995,-103.980819,Low Clearance,Morrill,NE,69358,LCX,,unmarked height clearance,low_unk_pushpin
200552,40.671490000000006,-95.848789,Low Clearance,Nebraska City,NE,68410,LCX,,unmarked height clearance,low_unk_pushpin
200553,41.243124,-95.91915,Low Clearance,Omaha,NE,68108,LCX,,unmarked height clearance,low_unk_pushpin
200554,41.221464000000005,-96.100778,Low Clearance,Omaha,NE,68144,LCX,,unmarked height clearance,low_unk_pushpin
200555,41.2260458,-96.1383755,Low Clearance,Omaha,NE,68144,LCX,,unmarked height clearance,low_unk_pushpin
200556,41.221562,-96.004564,Low Clearance,Omaha,NE,68117,LCX,,unmarked height clearance,low_unk_pushpin
200557,41.221540000000005,-96.043172,Low Clearance,Omaha,NE,68117,LCX,,unmarked high height clearance,low_unk_pushpin
200558,41.234066999999996,-96.153465,Low Clearance,Omaha,NE,68144,LCX,,unmarked height clearance,low_unk_pushpin
200559,40.893761,-98.24560699999999,Low Clearance,Phillips,NE,68865,LCX,,unmarked height clearance,low_unk_pushpin
200560,41.014424,-95.898066,Low Clearance,Plattsmouth,NE,68048,LCX,,unmarked height clearance,low_unk_pushpin
200561,40.790442,-96.91081700000001,Low Clearance,Pleasant Dale,NE,68423,LCX,,unmarked low height clearance,low_unk_pushpin
200562,41.14505,-102.96311999999999,Low Clearance,Sidney,NE,69162,LCX,,unmarked height clearance,low_unk_pushpin
200563,42.473898999999996,-96.387488,Low Clearance,South Sioux City,NE,68776,LCX,,ns unknown height clearance,low_unk_pushpin
200564,41.156025,-101.13754,Low Clearance,Sutherland,NE,69165,LCX,,unmarked height clearance,low_unk_pushpin
200565,40.860062,-96.083403,Low Clearance,Weeping Water,NE,68463,LCX,,"unmarked low height clearance, dirt",low_unk_pushpin
200566,41.029903999999995,-96.371061,Low Clearance,Ashland,NE,68003,LCX,,unmarked height clearance,low_unk_pushpin
200567,41.545783,-96.141046,Low Clearance,Blair,NE,68008,LCX,,unmarked height clearance,low_unk_pushpin
200568,40.387331,-96.909384,Low Clearance,De Witt,NE,68341,LCX,,unmarked height clearance,low_unk_pushpin
200569,40.945692,-98.347985,Low Clearance,Grand Island,NE,68801,LCX,,unmarked height clearance,low_unk_pushpin
200570,40.219075,-97.052486,Low Clearance,Jansen,NE,68377,LCX,,ns unknown height clearance,low_unk_pushpin
200571,40.24816,-97.032353,Low Clearance,Jansen,NE,68377,LCX,,ns unknown height clearance,low_unk_pushpin
200572,41.829305,-96.468713,Low Clearance,Oakland,NE,68045,LCX,,ns unknown height clearance,low_unk_pushpin
200573,41.224063,-96.004666,Low Clearance,Omaha,NE,68117,LCX,,unmarked height clearance,low_unk_pushpin
200574,40.336401,-96.954043,Low Clearance,Plymouth,NE,68424,LCX,,unmarked height clearance,low_unk_pushpin
200575,36.827213,-98.630498,Low Clearance,Alva,OK,73717,LCX,,ns unknown height clearance,low_unk_pushpin
200576,35.607806,-98.933533,Low Clearance,Arapaho,OK,73620,LCX,,ns unknown height clearance,low_unk_pushpin
200577,34.005373999999996,-95.990091,Low Clearance,Bennington,OK,74723,LCX,,ns unknown height clearance,low_unk_pushpin
200578,34.000408,-96.066314,Low Clearance,Bennington,OK,74723,LCX,,unmarked low height clearance,low_unk_pushpin
200579,36.558128,-95.36413399999999,Low Clearance,Big Cabin,OK,74332,LCX,,ns unknown height clearance,low_unk_pushpin
200580,35.899739000000004,-96.29812700000001,Low Clearance,Bristow,OK,74010,LCX,,ns unknown height clearance,low_unk_pushpin
200581,34.055187,-96.33828000000001,Low Clearance,Caddo,OK,74729,LCX,,ns unknown height clearance,low_unk_pushpin
200582,33.834655,-96.516068,Low Clearance,Colbert,OK,74733,LCX,,unmarked low height clearance,low_unk_pushpin
200583,35.70239,-96.76939499999999,Low Clearance,Davenport,OK,74026,LCX,,unmarked height clearance,low_unk_pushpin
200584,35.652282,-97.99831800000001,Low Clearance,El Reno,OK,73036,LCX,,ns unknown height clearance,low_unk_pushpin
200585,34.942173,-94.62220699999999,Low Clearance,Howe,OK,74940,LCX,,ns unknown height clearance,low_unk_pushpin
200586,34.685606,-95.929693,Low Clearance,Kiowa,OK,74553,LCX,,ns unknown height clearance,low_unk_pushpin
200587,34.874266,-95.60112099999999,Low Clearance,McAlester,OK,74501,LCX,,unmarked low height clearance,low_unk_pushpin
200588,36.499634,-98.97815899999999,Low Clearance,Mooreland,OK,73852,LCX,,unmarked low height clearance,low_unk_pushpin
200589,36.1606659,-96.3983029,Low Clearance,Pawnee,OK,74058,LCX,,ns unknown height clearance,low_unk_pushpin
200590,36.36544,-95.297748,Low Clearance,Pryor Creek,OK,74361,LCX,,ns unknown height clearance,low_unk_pushpin
200591,35.218896,-99.043872,Low Clearance,Rocky,OK,73661,LCX,,ns unknown height clearance,low_unk_pushpin
200592,36.271578999999996,-99.889964,Low Clearance,Shattuck,OK,73858,LCX,,ns unknown height clearance,low_unk_pushpin
200593,35.244246999999994,-94.610203,Low Clearance,Spiro,OK,74959,LCX,,unmarked height clearance,low_unk_pushpin
200594,33.751628000000004,-97.16028100000001,Low Clearance,Thackerville,OK,73459,LCX,,ns unknown height clearance,low_unk_pushpin
200595,36.437005,-99.4971,Low Clearance,Woodward,OK,73801,LCX,,unmarked low height clearance,low_unk_pushpin
200596,34.172331,-82.376423,Low Clearance,Abbeville,SC,29620,LCX,,unmarked height clearance,low_unk_pushpin
200597,33.434257,-81.913315,Low Clearance,Beech Island,SC,29842,LCX,,ns unknown height clearance,low_unk_pushpin
200598,35.204338,-80.80718,Low Clearance,Charlotte,SC,28205,LCX,,unmarked height clearance,low_unk_pushpin
200599,35.150546000000006,-80.745822,Low Clearance,Charlotte,SC,28212,LCX,,unmarked height clearance,low_unk_pushpin
200600,34.711493,-81.213798,Low Clearance,Chester,SC,29706,LCX,,unmarked low height clearance,low_unk_pushpin
200601,34.691726,-82.83354399999999,Low Clearance,Clemson,SC,29631,LCX,,unmarked height clearance,low_unk_pushpin
200602,34.093681,-80.954396,Low Clearance,Columbia,SC,29223,LCX,,unmarked high height clearance,low_unk_pushpin
200603,34.015972,-81.025305,Low Clearance,Columbia,SC,29201,LCX,,unmarked height clearance,low_unk_pushpin
200604,34.099593,-80.95734,Low Clearance,Columbia,SC,29223,LCX,,unmarked height clearance,low_unk_pushpin
200605,34.027256,-81.04209499999999,Low Clearance,Columbia,SC,29201,LCX,,unmarked height clearance,low_unk_pushpin
200606,33.96163,-80.981026,Low Clearance,Columbia,SC,29205,LCX,,unmarked height clearance,low_unk_pushpin
200607,34.082471999999996,-80.937437,Low Clearance,Columbia,SC,29223,LCX,,unmarked height clearance,low_unk_pushpin
200608,35.095009000000005,-81.597539,Low Clearance,Gaffney,SC,29340,LCX,,unmarked height clearance,low_unk_pushpin
200609,34.853994,-82.41643499999999,Low Clearance,Greenville,SC,29601,LCX,,unmarked height clearance,low_unk_pushpin
200610,34.831917,-82.344498,Low Clearance,Greenville,SC,29607,LCX,,unmarked height clearance,low_unk_pushpin
200611,34.218270000000004,-82.126285,Low Clearance,Greenwood,SC,29649,LCX,,unmarked height clearance,low_unk_pushpin
200612,34.500834999999995,-82.00815300000001,Low Clearance,Laurens,SC,29360,LCX,,unmarked height clearance,low_unk_pushpin
200613,34.906641,-81.79738,Low Clearance,Pacolet,SC,29372,LCX,,unmarked height clearance,low_unk_pushpin
200614,33.406159,-79.993065,Low Clearance,Pineville,SC,29468,LCX,,unmarked low height clearance,low_unk_pushpin
200615,34.886015,-81.076033,Low Clearance,Rock Hill,SC,29730,LCX,,unmarked low height clearance,low_unk_pushpin
200616,34.698299,-82.937537,Low Clearance,Seneca,SC,29678,LCX,,unmarked low height clearance,low_unk_pushpin
200617,34.753359,-82.287547,Low Clearance,Simpsonville,SC,29680,LCX,,unmarked height clearance,low_unk_pushpin
200618,34.755658000000004,-82.285291,Low Clearance,Simpsonville,SC,29681,LCX,,unmarked height clearance,low_unk_pushpin
200619,34.755842,-82.286266,Low Clearance,Simpsonville,SC,29680,LCX,,unmarked height clearance,low_unk_pushpin
200620,34.951128000000004,-81.988069,Low Clearance,Spartanburg,SC,29301,LCX,,"unmarked low height clearance, lots of low trees as well along road",low_unk_pushpin
200621,34.951132,-81.988056,Low Clearance,Spartanburg,SC,29301,LCX,,unmarked height clearance,low_unk_pushpin
200622,35.031014,-81.859099,Low Clearance,Spartanburg,SC,29307,LCX,,unmarked height clearance,low_unk_pushpin
200623,34.946731,-82.045835,Low Clearance,Spartanburg,SC,29301,LCX,,unmarked height clearance,low_unk_pushpin
200624,34.959947,-81.9116,Low Clearance,Spartanburg,SC,29302,LCX,,unmarked low height clearance,low_unk_pushpin
200625,34.959367,-81.926589,Low Clearance,Spartanburg,SC,29302,LCX,,unmarked height clearance,low_unk_pushpin
200626,34.960229,-81.92492,Low Clearance,Spartanburg,SC,29303,LCX,,unmarked high height clearance,low_unk_pushpin
200627,34.941398,-81.937025,Low Clearance,Spartanburg,SC,29306,LCX,,unmarked height clearance,low_unk_pushpin
200628,34.934484999999995,-81.89542,Low Clearance,Spartanburg,SC,29302,LCX,,unmarked height clearance,low_unk_pushpin
200629,34.963891,-81.928102,Low Clearance,Spartanburg,SC,29303,LCX,,unmarked height clearance,low_unk_pushpin
200630,33.431988,-79.912886,Low Clearance,St Stephen,SC,29479,LCX,,ns unknown height clearance,low_unk_pushpin
200631,33.722049,-81.10173499999999,Low Clearance,Swansea,SC,29160,LCX,,unmarked height clearance,low_unk_pushpin
200632,34.923704,-82.290592,Low Clearance,Taylors,SC,29687,LCX,,unmarked height clearance,low_unk_pushpin
200633,34.771074,-79.79991700000001,Low Clearance,Wallace,SC,29596,LCX,,ns unknown height clearance,low_unk_pushpin
200634,33.905190000000005,-81.072466,Low Clearance,West Columbia,SC,29172,LCX,,unmarked height clearance,low_unk_pushpin
200635,34.663447999999995,-83.09286800000001,Low Clearance,Westminster,SC,29693,LCX,,unmarked low height clearance,low_unk_pushpin
200636,34.492877,-81.674547,Low Clearance,Whitmire,SC,29178,LCX,,ns unknown height clearance,low_unk_pushpin
200637,34.751609,-82.047935,Low Clearance,Woodruff,SC,29388,LCX,,unmarked height clearance,low_unk_pushpin
200638,36.198278,-82.710026,Low Clearance,Afton,TN,37616,LCX,,unmarked height clearance,low_unk_pushpin
200639,36.046203999999996,-86.65772,Low Clearance,Antioch,TN,37013,LCX,,unmarked height clearance,low_unk_pushpin
200640,36.081231,-86.682833,Low Clearance,Antioch,TN,37013,LCX,,unmarked height clearance,low_unk_pushpin
200641,36.476109,-82.25834499999999,Low Clearance,Bluff City,TN,37618,LCX,,unmarked low height clearance,low_unk_pushpin
200642,36.477353,-82.256361,Low Clearance,Bluff City,TN,37618,LCX,,unmarked height clearance,low_unk_pushpin
200643,36.550907,-82.177738,Low Clearance,Bristol,TN,37620,LCX,,unmarked height clearance,low_unk_pushpin
200644,35.290112,-84.72368,Low Clearance,Calhoun,TN,37309,LCX,,unmarked height clearance,low_unk_pushpin
200645,36.26278,-84.189796,Low Clearance,Caryville,TN,37714,LCX,,unmarked height clearance,low_unk_pushpin
200646,36.320417,-84.241895,Low Clearance,Caryville,TN,37714,LCX,,unmarked height clearance,low_unk_pushpin
200647,35.080582,-85.216208,Low Clearance,Chattanooga,TN,37406,LCX,,unmarked height clearance,low_unk_pushpin
200648,35.083743,-85.220352,Low Clearance,Chattanooga,TN,37406,LCX,,unmarked height clearance,low_unk_pushpin
200649,35.068469,-85.21093499999999,Low Clearance,Chattanooga,TN,37406,LCX,,unmarked height clearance,low_unk_pushpin
200650,35.106634,-85.233598,Low Clearance,Chattanooga,TN,37415,LCX,,unmarked height clearance,low_unk_pushpin
200651,35.013362,-85.32745600000001,Low Clearance,Chattanooga,TN,37409,LCX,,unmarked height clearance,low_unk_pushpin
200652,35.012446999999995,-85.32616800000001,Low Clearance,Chattanooga,TN,37409,LCX,,unmarked height clearance,low_unk_pushpin
200653,35.101959,-85.23315799999999,Low Clearance,Chattanooga,TN,37406,LCX,,unmarked height clearance,low_unk_pushpin
200654,35.065509999999996,-85.228269,Low Clearance,Chattanooga,TN,37406,LCX,,unmarked height clearance,low_unk_pushpin
200655,35.03253,-85.297889,Low Clearance,Chattanooga,TN,37408,LCX,,unmarked height clearance,low_unk_pushpin
200656,35.014263,-85.31264300000001,Low Clearance,Chattanooga,TN,37410,LCX,,unknown height clearance but sign refers trucks this way,low_unk_pushpin
200657,36.559373,-82.615799,Low Clearance,Church Hill,TN,37642,LCX,,unmarked height clearance,low_unk_pushpin
200658,36.519422,-82.72222,Low Clearance,Church Hill,TN,37642,LCX,,unmarked height clearance,low_unk_pushpin
200659,36.523393,-82.713999,Low Clearance,Church Hill,TN,37642,LCX,,unmarked height clearance,low_unk_pushpin
200660,36.16903,-84.129524,Low Clearance,Clinton,TN,37716,LCX,,unmarked height clearance,low_unk_pushpin
200661,36.102594,-84.15858,Low Clearance,Clinton,TN,37716,LCX,,unmarked height clearance,low_unk_pushpin
200662,35.606161,-87.035195,Low Clearance,Columbia,TN,38401,LCX,,unmarked height clearance,low_unk_pushpin
200663,36.141193,-83.796052,Low Clearance,Corryton,TN,37721,LCX,,unmarked height clearance,low_unk_pushpin
200664,36.099447,-82.443337,Low Clearance,Erwin,TN,37650,LCX,,unmarked height clearance,low_unk_pushpin
200665,35.19166,-86.850258,Low Clearance,Frankenwing,TN,38459,LCX,,unmarked height clearance,low_unk_pushpin
200666,36.353578999999996,-86.534975,Low Clearance,Gallatin,TN,37066,LCX,,unmarked height clearance,low_unk_pushpin
200667,36.355554,-86.537594,Low Clearance,Gallatin,TN,37066,LCX,,unmarked height clearance,low_unk_pushpin
200668,36.338026,-86.721183,Low Clearance,Goodlettsville,TN,37072,LCX,,unmarked height clearance,low_unk_pushpin
200669,36.322849,-86.708788,Low Clearance,Goodlettsville,TN,37072,LCX,,unmarked height clearance,low_unk_pushpin
200670,36.335662,-86.71721,Low Clearance,Goodlettsville,TN,37072,LCX,,unmarked height clearance,low_unk_pushpin
200671,36.169947,-82.827015,Low Clearance,Greeneville,TN,37745,LCX,,unmarked height clearance,low_unk_pushpin
200672,35.912069,-84.583372,Low Clearance,Harriman,TN,37748,LCX,,unmarked height clearance,low_unk_pushpin
200673,36.007981,-84.386663,Low Clearance,Harriman,TN,37748,LCX,,unmarked height clearance,low_unk_pushpin
200674,36.078509999999994,-84.059046,Low Clearance,Heiskell,TN,37754,LCX,,unmarked height clearance,low_unk_pushpin
200675,35.675539,-89.570881,Low Clearance,Henning,TN,38041,LCX,,unmarked low height clearance,low_unk_pushpin
200676,36.185753999999996,-86.628175,Low Clearance,Hermitage,TN,37076,LCX,,unmarked height clearance,low_unk_pushpin
200677,35.030638,-87.55705,Low Clearance,Iron city,TN,38463,LCX,,unmarked height clearance,low_unk_pushpin
200678,35.672851,-88.787711,Low Clearance,Jackson,TN,38305,LCX,,unmarked height clearance,low_unk_pushpin
200679,35.050309999999996,-85.635626,Low Clearance,Jasper,TN,37347,LCX,,unmarked height clearance,low_unk_pushpin
200680,36.299394,-82.388825,Low Clearance,Johnson City,TN,37604,LCX,,unmarked height clearance,low_unk_pushpin
200681,36.41498,-82.47056500000001,Low Clearance,Johnson City,TN,37615,LCX,,unmarked height clearance,low_unk_pushpin
200682,36.305084,-82.39291800000001,Low Clearance,Johnson City,TN,37604,LCX,,unmarked height clearance,low_unk_pushpin
200683,36.304188,-82.338178,Low Clearance,Johnson City,TN,37601,LCX,,unmarked height clearance,low_unk_pushpin
200684,36.30191,-82.364512,Low Clearance,Johnson City,TN,37604,LCX,,unmarked height clearance,low_unk_pushpin
200685,36.309145,-82.334979,Low Clearance,Johnson City,TN,37601,LCX,,unmarked height clearance,low_unk_pushpin
200686,36.309787,-82.33484399999999,Low Clearance,Johnson City,TN,37601,LCX,,unmarked height clearance,low_unk_pushpin
200687,36.535828,-82.547916,Low Clearance,Kingsport,TN,37660,LCX,,unmarked height clearance,low_unk_pushpin
200688,36.541894,-82.57640699999999,Low Clearance,Kingsport,TN,37660,LCX,,unmarked height clearance,low_unk_pushpin
200689,36.53649,-82.549032,Low Clearance,Kingsport,TN,37660,LCX,,unmarked height clearance,low_unk_pushpin
200690,36.553193,-82.578337,Low Clearance,Kingsport,TN,37660,LCX,,unmarked height clearance,low_unk_pushpin
200691,36.554623,-82.61344799999999,Low Clearance,Kingsport,TN,37660,LCX,,unmarked height clearance,low_unk_pushpin
200692,35.965385999999995,-83.92735,Low Clearance,Knoxville,TN,37916,LCX,,unmarked height clearance,low_unk_pushpin
200693,35.959443,-83.92333199999999,Low Clearance,Knoxville,TN,37902,LCX,,unmarked height clearance,low_unk_pushpin
200694,35.960101,-83.848008,Low Clearance,Knoxville,TN,37914,LCX,,unmarked height clearance,low_unk_pushpin
200695,35.896359000000004,-84.070976,Low Clearance,Knoxville,TN,37923,LCX,,unmarked height clearance,low_unk_pushpin
200696,35.953375,-83.879037,Low Clearance,Knoxville,TN,37920,LCX,,unmarked height clearance,low_unk_pushpin
200697,36.002179999999996,-83.95614599999999,Low Clearance,Knoxville,TN,37912,LCX,,unmarked height clearance,low_unk_pushpin
200698,35.962214,-83.97341,Low Clearance,Knoxville,TN,37921,LCX,,unmarked height clearance,low_unk_pushpin
200699,36.016749,-83.922485,Low Clearance,Knoxville,TN,37917,LCX,,unmarked height clearance,low_unk_pushpin
200700,35.956523,-83.92134,Low Clearance,Knoxville,TN,37902,LCX,,unmarked height clearance,low_unk_pushpin
200701,35.942137,-83.91838800000001,Low Clearance,Knoxville,TN,37920,LCX,,unmarked height clearance,low_unk_pushpin
200702,36.395699,-84.127773,Low Clearance,La Follette,TN,37766,LCX,,unmarked height clearance,low_unk_pushpin
200703,36.357985,-84.146885,Low Clearance,La Follette,TN,37766,LCX,,unmarked height clearance,low_unk_pushpin
200704,36.384551,-84.12561099999999,Low Clearance,La Follette,TN,37766,LCX,,unmarked height clearance,low_unk_pushpin
200705,35.233881,-87.333541,Low Clearance,Lawrenceburg,TN,38464,LCX,,unmarked height clearance,low_unk_pushpin
200706,36.235065000000006,-86.42150699999999,Low Clearance,Lebanon,TN,37090,LCX,,unmarked height clearance,low_unk_pushpin
200707,35.828974,-83.99665,Low Clearance,Louisville,TN,37777,LCX,,unmarked low height clearance,low_unk_pushpin
200708,36.260731,-86.71690500000001,Low Clearance,Madison,TN,37115,LCX,,unmarked height clearance,low_unk_pushpin
200709,36.241502000000004,-86.726344,Low Clearance,Madison,TN,37115,LCX,,ns unknown height clearance,low_unk_pushpin
200710,35.477117,-84.421621,Low Clearance,Madisonville,TN,37354,LCX,,unmarked low height clearance,low_unk_pushpin
200711,35.129363,-89.983923,Low Clearance,Memphis,TN,38104,LCX,,unmarked height clearance,low_unk_pushpin
200712,35.106334000000004,-89.992503,Low Clearance,Memphis,TN,38114,LCX,,unmarked height clearance,low_unk_pushpin
200713,35.131402,-90.032635,Low Clearance,Memphis,TN,38126,LCX,,unmarked height clearance,low_unk_pushpin
200714,35.02045,-89.884404,Low Clearance,Memphis,TN,38118,LCX,,unmarked height clearance,low_unk_pushpin
200715,35.099806,-89.870143,Low Clearance,Memphis,TN,38119,LCX,,unmarked height clearance,low_unk_pushpin
200716,35.086676000000004,-90.02553499999999,Low Clearance,Memphis,TN,38106,LCX,,unmarked height clearance,low_unk_pushpin
200717,35.100215999999996,-89.85913000000001,Low Clearance,Memphis,TN,38119,LCX,,unmarked height clearance,low_unk_pushpin
200718,35.126622999999995,-90.046869,Low Clearance,Memphis,TN,38126,LCX,,unmarked height clearance,low_unk_pushpin
200719,35.116424,-90.06999300000001,Low Clearance,Memphis,TN,38106,LCX,,unmarked height clearance,low_unk_pushpin
200720,35.051722,-89.929053,Low Clearance,Memphis,TN,38118,LCX,,unmarked height clearance,low_unk_pushpin
200721,35.927085999999996,-88.73909499999999,Low Clearance,Milan,TN,38358,LCX,,unmarked height clearance,low_unk_pushpin
200722,35.048428,-89.243645,Low Clearance,Moscow,TN,38057,LCX,,unmarked height clearance,low_unk_pushpin
200723,36.540289,-82.66382800000001,Low Clearance,Mt Carmel,TN,37645,LCX,,unmarked height clearance,low_unk_pushpin
200724,36.126444,-86.772074,Low Clearance,Nashville,TN,37204,LCX,,unmarked height clearance,low_unk_pushpin
200725,36.177403999999996,-86.699025,Low Clearance,Nashville,TN,37214,LCX,,unmarked private drive height clearance,low_unk_pushpin
200726,36.179083,-86.69565300000001,Low Clearance,Nashville,TN,37214,LCX,,unmarked height clearance,low_unk_pushpin
200727,36.204401000000004,-86.746377,Low Clearance,Nashville,TN,37207,LCX,,unmarked height clearance,low_unk_pushpin
200728,36.124013,-86.74955899999999,Low Clearance,Nashville,TN,37210,LCX,,unmarked height clearance,low_unk_pushpin
200729,36.088625,-86.690028,Low Clearance,Nashville,TN,37211,LCX,,unmarked height clearance,low_unk_pushpin
200730,36.096384,-86.708347,Low Clearance,Nashville,TN,37211,LCX,,unmarked height clearance,low_unk_pushpin
200731,36.141635,-86.733699,Low Clearance,Nashville,TN,37210,LCX,,unmarked height clearance,low_unk_pushpin
200732,36.123376,-86.749794,Low Clearance,Nashville,TN,37210,LCX,,unmarked height clearance,low_unk_pushpin
200733,36.166024,-86.78922,Low Clearance,Nashville,TN,37203,LCX,,unmarked height clearance,low_unk_pushpin
200734,36.140256,-86.82852700000001,Low Clearance,Nashville,TN,37209,LCX,,unmarked height clearance,low_unk_pushpin
200735,36.164425,-86.78909499999999,Low Clearance,Nashville,TN,37203,LCX,,unmarked height clearance,low_unk_pushpin
200736,36.062135,-86.916575,Low Clearance,Nashville,TN,37221,LCX,,unmarked height clearance,low_unk_pushpin
200737,36.168119,-86.788049,Low Clearance,Nashville,TN,37203,LCX,,unmarked height clearance,low_unk_pushpin
200738,36.168609000000004,-86.64614300000001,Low Clearance,Nashville,TN,37214,LCX,,ns unknown height clearance,low_unk_pushpin
200739,36.111263,-86.751097,Low Clearance,Nashville,TN,37204,LCX,,unmarked height clearance,low_unk_pushpin
200740,36.236711,-86.728656,Low Clearance,Nashville,TN,37216,LCX,,unmarked height clearance,low_unk_pushpin
200741,36.090896,-86.73452900000001,Low Clearance,Nashville,TN,37211,LCX,,unmarked height clearance,low_unk_pushpin
200742,36.22848,-86.62693900000001,Low Clearance,Old Hickory,TN,37138,LCX,,unmarked height clearance,low_unk_pushpin
200743,35.202352000000005,-87.05594,Low Clearance,Pulaski,TN,38478,LCX,,unmarked height clearance,low_unk_pushpin
200744,36.220352,-84.158466,Low Clearance,Rocky Top,TN,37769,LCX,,unmarked height clearance,low_unk_pushpin
200745,36.110147999999995,-85.689572,Low Clearance,Silver Point,TN,38582,LCX,,unmarked height clearance,low_unk_pushpin
200746,35.019087,-85.697714,Low Clearance,South Pittsburg,TN,37380,LCX,,unmarked height clearance,low_unk_pushpin
200747,36.508041,-86.895911,Low Clearance,Springfield,TN,37172,LCX,,unmarked height clearance,low_unk_pushpin
200748,36.502388,-86.88152099999999,Low Clearance,Springfield,TN,37072,LCX,,unmarked height clearance,low_unk_pushpin
200749,36.062853999999994,-83.691063,Low Clearance,Strawberry Plains,TN,37871,LCX,,unmarked height clearance,low_unk_pushpin
200750,36.060784999999996,-83.70376800000001,Low Clearance,Strawberry Plains,TN,37871,LCX,,unmarked height clearance,low_unk_pushpin
200751,35.390863,-87.299634,Low Clearance,Summertown,TN,38483,LCX,,ns unknown height clearance,low_unk_pushpin
200752,36.46998,-82.851012,Low Clearance,Surgoinsville,TN,37873,LCX,,unmarked height clearance,low_unk_pushpin
200753,36.484869,-82.817172,Low Clearance,Surgoinsville,TN,37873,LCX,,unmarked height clearance,low_unk_pushpin
200754,35.499727,-86.393938,Low Clearance,Wartrace,TN,37183,LCX,,unmarked height clearance,low_unk_pushpin
200755,36.272257,-83.64009899999999,Low Clearance,Washburn,TN,37888,LCX,,unmarked height clearance,low_unk_pushpin
200756,36.298479,-83.59480699999999,Low Clearance,Washburn,TN,37888,LCX,,unmarked height clearance,low_unk_pushpin
200757,35.000857,-85.512121,Low Clearance,Whiteside,TN,37396,LCX,,unmarked height clearance,low_unk_pushpin
200758,30.263845,-97.755213,Low Clearance,Austin,TX,78704,LCX,,"unmarked high height clearance, trees look overgrown on road",low_unk_pushpin
200759,31.811041999999997,-98.800446,Low Clearance,Blanket,TX,76432,LCX,,unmarked low height clearance,low_unk_pushpin
200760,30.188672999999998,-96.411836,Low Clearance,Brenham,TX,77833,LCX,,unmarked height clearance,low_unk_pushpin
200761,30.169971000000004,-96.401049,Low Clearance,Brenham,TX,77833,LCX,,unmarked height clearance,low_unk_pushpin
200762,31.872364,-99.49781,Low Clearance,Coleman,TX,76834,LCX,,ns unknown height clearance,low_unk_pushpin
200763,32.2943247,-100.3075441,Low Clearance,Colorado City,TX,79512,LCX,,unmarked low height clearance,low_unk_pushpin
200764,29.175561,-97.247024,Low Clearance,Cuero,TX,77954,LCX,,ns unknown height clearance,low_unk_pushpin
200765,30.414040000000004,-96.773597,Low Clearance,Dime Box,TX,77853,LCX,,ns unknown height clearance,low_unk_pushpin
200766,30.338743,-96.837672,Low Clearance,Dime Box,TX,77853,LCX,,ns unknown height clearance,low_unk_pushpin
200767,32.108546000000004,-98.276969,Low Clearance,Dublin,TX,76446,LCX,,ns unknown height clearance,low_unk_pushpin
200768,32.784442999999996,-97.324425,Low Clearance,Fort Worth,TX,76106,LCX,,unmarked height clearance,low_unk_pushpin
200769,32.771419,-97.325401,Low Clearance,Fort Worth,TX,76102,LCX,,unmarked low height clearance,low_unk_pushpin
200770,32.740953999999995,-97.309318,Low Clearance,Fort Worth,TX,76104,LCX,,unmarked height clearance,low_unk_pushpin
200771,30.179216999999998,-96.93938100000001,Low Clearance,Giddings,TX,78942,LCX,,unmarked height clearance,low_unk_pushpin
200772,29.677232,-97.437012,Low Clearance,Harwood,TX,78632,LCX,,ns unknown height clearance,low_unk_pushpin
200773,29.353352,-99.055431,Low Clearance,Hondo,TX,78861,LCX,,ns unknown height clearance,low_unk_pushpin
200774,29.798042,-95.288885,Low Clearance,Houston,TX,77020,LCX,,unmarked height clearance,low_unk_pushpin
200775,29.653940999999996,-97.757207,Low Clearance,Kingsbury,TX,78638,LCX,,unmarked low height clearance,low_unk_pushpin
200776,29.937832,-97.895117,Low Clearance,Kyle,TX,78640,LCX,,unmarked height clearance,low_unk_pushpin
200777,30.273020000000002,-103.820657,Low Clearance,Marfa,TX,79843,LCX,,ns unknown height clearance,low_unk_pushpin
200778,32.631941,-95.36389100000001,Low Clearance,Mineola,TX,75773,LCX,,ns unknown height clearance,low_unk_pushpin
200779,29.645933000000003,-98.23959,Low Clearance,New Braunfels,TX,78132,LCX,,unmarked height clearance,low_unk_pushpin
200780,31.967222999999997,-99.600188,Low Clearance,Novice,TX,79538,LCX,,ns unknown height clearance,low_unk_pushpin
200781,32.903578,-96.54734,Low Clearance,Rowlett,TX,75088,LCX,,unmarked low height clearance,low_unk_pushpin
200782,29.413399,-98.443125,Low Clearance,San Antonio,TX,78220,LCX,,unmarked height clearance,low_unk_pushpin
200783,29.936978000000003,-97.89586800000001,Low Clearance,San Marcos,TX,78666,LCX,,unmarked height clearance,low_unk_pushpin
200784,32.199026,-99.78699499999999,Low Clearance,Tuscola,TX,79562,LCX,,unmarked low height clearance,low_unk_pushpin
200785,33.769938,-96.602863,Low Clearance,Denison,TX,75020,LCX,,ns unknown height clearance,low_unk_pushpin
200786,33.753719,-96.692045,Low Clearance,Pottsboro,TX,75076,LCX,,ns unknown height clearance,low_unk_pushpin
200787,33.702974,-96.774951,Low Clearance,Sherman,TX,75092,LCX,,ns unknown height clearance,low_unk_pushpin
200788,38.812956,-77.05471700000001,Low Clearance,Alexandria ,VA,22314,LCX,,unmarked height clearance,low_unk_pushpin
200789,38.801097,-77.070296,Low Clearance,Alexandria ,VA,22314,LCX,,unmarked height clearance,low_unk_pushpin
200790,38.804283,-77.109799,Low Clearance,Alexandria ,VA,22304,LCX,,unmarked height clearance,low_unk_pushpin
200791,38.80274,-77.112512,Low Clearance,Alexandria ,VA,22333,LCX,,unmarked height clearance,low_unk_pushpin
200792,38.796203000000006,-77.074969,Low Clearance,Alexandria ,VA,22303,LCX,,unmarked height clearance,low_unk_pushpin
200793,38.799341999999996,-77.072351,Low Clearance,Alexandria ,VA,22314,LCX,,unmarked height clearance,low_unk_pushpin
200794,38.797394,-77.074585,Low Clearance,Alexandria ,VA,22303,LCX,,unmarked high height clearance,low_unk_pushpin
200795,38.798446999999996,-77.134557,Low Clearance,Alexandria ,VA,22304,LCX,,unmarked height clearance,low_unk_pushpin
200796,37.108802000000004,-79.303432,Low Clearance,Altavista ,VA,24517,LCX,,ns unknown height clearance,low_unk_pushpin
200797,37.109157,-79.286028,Low Clearance,Altavista ,VA,24517,LCX,,unmarked height clearance,low_unk_pushpin
200798,37.108703999999996,-79.292929,Low Clearance,Altavista ,VA,24517,LCX,,unmarked height clearance,low_unk_pushpin
200799,37.551418,-79.069384,Low Clearance,Amherst,VA,24521,LCX,,unmarked height clearance,low_unk_pushpin
200800,37.553616999999996,-79.066296,Low Clearance,Amherst,VA,24521,LCX,,unmarked height clearance,low_unk_pushpin
200801,37.314594,-78.77274799999999,Low Clearance,Appomattox ,VA,24522,LCX,,ns unknown height clearance,low_unk_pushpin
200802,38.846988,-77.048765,Low Clearance,Arlington,VA,22202,LCX,,unmarked height clearance,low_unk_pushpin
200803,38.848265999999995,-77.046068,Low Clearance,Arlington ,VA,22202,LCX,,unmarked height clearance,low_unk_pushpin
200804,38.855461,-77.044966,Low Clearance,Arlington ,VA,22202,LCX,,unmarked height clearance,low_unk_pushpin
200805,38.84752,-77.047709,Low Clearance,Arlington ,VA,22202,LCX,,unmarked height clearance,low_unk_pushpin
200806,38.848889,-77.04459200000001,Low Clearance,Arlington ,VA,22202,LCX,,unmarked height clearance,low_unk_pushpin
200807,37.16794,-79.518672,Low Clearance,Bedford,VA,24523,LCX,,unmarked height clearance,low_unk_pushpin
200808,37.339673,-79.498149,Low Clearance,Bedford,VA,24523,LCX,,unmarked height clearance,low_unk_pushpin
200809,38.805529,-78.349029,Low Clearance,Bentonville ,VA,22610,LCX,,ns unknown height clearance,low_unk_pushpin
200810,37.089705,-77.996239,Low Clearance,Blackstone ,VA,23824,LCX,,unmarked height clearance,low_unk_pushpin
200811,37.079766,-77.999622,Low Clearance,Blackstone ,VA,23824,LCX,,unmarked height clearance,low_unk_pushpin
200812,37.377410999999995,-79.80155500000001,Low Clearance,Blue Ridge,VA,24064,LCX,,ns unknown height clearance,low_unk_pushpin
200813,37.394296000000004,-79.746809,Low Clearance,Blue Ridge,VA,24064,LCX,,unmarked height clearance,low_unk_pushpin
200814,37.165409999999994,-79.97309399999999,Low Clearance,Boones Mill,VA,24065,LCX,,unmarked height clearance,low_unk_pushpin
200815,39.106075,-78.014059,Low Clearance,Boyce,VA,22620,LCX,,unmarked height clearance,low_unk_pushpin
200816,37.039956,-78.945564,Low Clearance,Brookneal,VA,24528,LCX,,unmarked height clearance,low_unk_pushpin
200817,37.448761,-79.78502900000001,Low Clearance,Buchanan,VA,24066,LCX,,ns unknown height clearance,low_unk_pushpin
200818,37.804904,-79.317122,Low Clearance,Buena Vista,VA,24416,LCX,,ns unknown height clearance,low_unk_pushpin
200819,37.188056,-78.210435,Low Clearance,Burkeville,VA,23922,LCX,,ns unknown height clearance,low_unk_pushpin
200820,37.224228000000004,-79.990011,Low Clearance,Cave Spring,VA,24018,LCX,,unmarked height clearance,low_unk_pushpin
200821,37.22184,-79.98893000000001,Low Clearance,Cave Spring,VA,24018,LCX,,unmarked height clearance,low_unk_pushpin
200822,38.019566,-78.45456,Low Clearance,Charlottesville ,VA,22902,LCX,,unmarked height clearance,low_unk_pushpin
200823,38.032932,-78.498917,Low Clearance,Charlottesville ,VA,22903,LCX,,unmarked height clearance,low_unk_pushpin
200824,38.035641,-78.48635,Low Clearance,Charlottesville ,VA,22903,LCX,,unmarked height clearance,low_unk_pushpin
200825,38.031484999999996,-78.495347,Low Clearance,Charlottesville ,VA,22903,LCX,,unmarked height clearance,low_unk_pushpin
200826,38.030765,-78.495708,Low Clearance,Charlottesville ,VA,22903,LCX,,unmarked height clearance,low_unk_pushpin
200827,36.821727,-79.402731,Low Clearance,Chatham,VA,24531,LCX,,unmarked low height clearance,low_unk_pushpin
200828,36.838512,-79.41039599999999,Low Clearance,Chatham,VA,24531,LCX,,unmarked height clearance,low_unk_pushpin
200829,37.36698,-77.404087,Low Clearance,Chester,VA,23836,LCX,,unmarked height clearance,low_unk_pushpin
200830,37.36703,-77.40203699999999,Low Clearance,Chester,VA,23836,LCX,,unmarked height clearance,low_unk_pushpin
200831,37.178476,-80.49809,Low Clearance,Christiansburg,VA,24073,LCX,,ns unknown height clearance,low_unk_pushpin
200832,37.147554,-80.40114,Low Clearance,Christiansburg,VA,24073,LCX,,unmarked height clearance,low_unk_pushpin
200833,36.619890999999996,-78.567723,Low Clearance,Clarksville,VA,23927,LCX,,unmarked height clearance,low_unk_pushpin
200834,38.488952000000005,-77.9371,Low Clearance,Culpeper,VA,22701,LCX,,unmarked height clearance,low_unk_pushpin
200835,36.542936,-79.46045699999999,Low Clearance,Danville,VA,24541,LCX,,unmarked height clearance,low_unk_pushpin
200836,36.543337,-79.460614,Low Clearance,Danville ,VA,24541,LCX,,unmarked height clearance,low_unk_pushpin
200837,36.5872,-79.380521,Low Clearance,Danville ,VA,24540,LCX,,unmarked height clearance,low_unk_pushpin
200838,37.888165,-77.461924,Low Clearance,Doswell,VA,23047,LCX,,ns unknown height clearance,low_unk_pushpin
200839,38.464901,-78.619566,Low Clearance,Elkton ,VA,22827,LCX,,ns unknown height clearance,low_unk_pushpin
200840,37.200185,-80.240531,Low Clearance,Elliston,VA,24087,LCX,,ns unknown height clearance,low_unk_pushpin
200841,37.214971000000006,-79.28676,Low Clearance,Evington,VA,24550,LCX,,ns unknown height clearance,low_unk_pushpin
200842,37.134437,-80.583985,Low Clearance,Fairlawn,VA,24141,LCX,,unmarked height clearance,low_unk_pushpin
200843,36.684813,-76.909513,Low Clearance,Franklin,VA,23851,LCX,,unmarked height clearance,low_unk_pushpin
200844,38.91434,-78.110178,Low Clearance,Front Royal,VA,22630,LCX,,unmarked height clearance,low_unk_pushpin
200845,38.956819,-78.184935,Low Clearance,Front Royal ,VA,22630,LCX,,unmarked height clearance,low_unk_pushpin
200846,38.945262,-78.188019,Low Clearance,Front Royal ,VA,22630,LCX,,ns unknown height clearance,low_unk_pushpin
200847,38.935276,-78.212319,Low Clearance,Front Royal ,VA,22630,LCX,,ns unknown height clearance,low_unk_pushpin
200848,38.913424,-78.20786700000001,Low Clearance,Front Royal ,VA,22630,LCX,,ns unknown height clearance,low_unk_pushpin
200849,38.861733,-78.261618,Low Clearance,Front Royal ,VA,22630,LCX,,unmarked height clearance,low_unk_pushpin
200850,37.666899,-79.442859,Low Clearance,Glasgow,VA,24555,LCX,,ns unknown height clearance,low_unk_pushpin
200851,38.217377,-78.83335100000001,Low Clearance,Grottoes,VA,24441,LCX,,ns unknown height clearance,low_unk_pushpin
200852,37.30298,-77.284305,Low Clearance,Hopewell,VA,23860,LCX,,unmarked height clearance,low_unk_pushpin
200853,37.07584,-79.33426,Low Clearance,Hurt,VA,24563,LCX,,unmarked height clearance,low_unk_pushpin
200854,38.061628000000006,-78.648707,Low Clearance,Ivy ,VA,22903,LCX,,unmarked height clearance,low_unk_pushpin
200855,37.062388,-78.470635,Low Clearance,Keysville ,VA,23947,LCX,,unmarked height clearance,low_unk_pushpin
200856,38.705355,-77.22112800000001,Low Clearance,Lorton ,VA,22079,LCX,,unmarked height clearance,low_unk_pushpin
200857,38.796640999999994,-78.360157,Low Clearance,Luray ,VA,22835,LCX,,unmarked high height clearance,low_unk_pushpin
200858,38.662243,-78.462076,Low Clearance,Luray ,VA,22835,LCX,,unmarked height clearance,low_unk_pushpin
200859,37.115582,-79.387218,Low Clearance,Lynch Station ,VA,24571,LCX,,unmarked height clearance,low_unk_pushpin
200860,37.369493,-79.198163,Low Clearance,Lynchburg,VA,24502,LCX,,unmarked height clearance,low_unk_pushpin
200861,37.39781,-79.150207,Low Clearance,Lynchburg,VA,24501,LCX,,unmarked height clearance,low_unk_pushpin
200862,37.37142,-79.21152,Low Clearance,Lynchburg,VA,24502,LCX,,unmarked height clearance,low_unk_pushpin
200863,38.749927,-77.47500600000001,Low Clearance,Manassas ,VA,20110,LCX,,unmarked height clearance,low_unk_pushpin
200864,36.6841218,-79.8994452,Low Clearance,Martinsville,VA,24112,LCX,,unmarked height clearance,low_unk_pushpin
200865,36.690045,-79.907027,Low Clearance,Martinsville,VA,24112,LCX,,unmarked height clearance,low_unk_pushpin
200866,36.685744,-79.883553,Low Clearance,Martinsville,VA,24112,LCX,,unmarked height clearance,low_unk_pushpin
200867,37.635870000000004,-77.397888,Low Clearance,Mechanicsville ,VA,23116,LCX,,unmarked height clearance,low_unk_pushpin
200868,37.64998,-77.401893,Low Clearance,Mechanicsville  ,VA,23116,LCX,,unmarked height clearance,low_unk_pushpin
200869,37.334472,-80.812058,Low Clearance,Narrows ,VA,24124,LCX,,ns unknown height clearance,low_unk_pushpin
200870,37.621608,-79.505269,Low Clearance,Natural Bridge Station ,VA,24579,LCX,,ns unknown height clearance,low_unk_pushpin
200871,36.845463,-76.271512,Low Clearance,Norfolk ,VA,23504,LCX,,unmarked height clearance,low_unk_pushpin
200872,36.845849,-76.26937099999999,Low Clearance,Norfolk ,VA,23504,LCX,,unmarked height clearance,low_unk_pushpin
200873,36.844857,-76.273514,Low Clearance,Norfolk ,VA,23504,LCX,,unmarked height clearance,low_unk_pushpin
200874,37.962716,-78.61026,Low Clearance,North Garden ,VA,22959,LCX,,unmarked height clearance,low_unk_pushpin
200875,38.263727,-78.108751,Low Clearance,Orange ,VA,22960,LCX,,ns unknown height clearance,low_unk_pushpin
200876,37.199795,-77.377624,Low Clearance,Petersburg ,VA,23805,LCX,,unmarked height clearance,low_unk_pushpin
200877,37.190093,-77.451824,Low Clearance,Petersburg ,VA,23803,LCX,,ns unknown height clearance,low_unk_pushpin
200878,37.186679999999996,-77.434674,Low Clearance,Petersburg ,VA,23805,LCX,,unmarked height clearance,low_unk_pushpin
200879,37.220374,-77.42984100000001,Low Clearance,Petersburg ,VA,23803,LCX,,unmarked height clearance,low_unk_pushpin
200880,37.930729,-79.16368299999999,Low Clearance,Raphine ,VA,24472,LCX,,unmarked height clearance,low_unk_pushpin
200881,38.31414,-78.066801,Low Clearance,Rapidan ,VA,22733,LCX,,ns unknown height clearance,low_unk_pushpin
200882,37.532072,-77.432185,Low Clearance,Richmond,VA,23219,LCX,,unmarked height clearance,low_unk_pushpin
200883,37.53259,-77.429328,Low Clearance,Richmond,VA,23219,LCX,,unmarked height clearance,low_unk_pushpin
200884,37.533941999999996,-77.429337,Low Clearance,Richmond,VA,23219,LCX,,unmarked height clearance,low_unk_pushpin
200885,37.532284000000004,-77.433087,Low Clearance,Richmond,VA,23219,LCX,,unmarked height clearance,low_unk_pushpin
200886,37.448494000000004,-77.45228399999999,Low Clearance,Richmond ,VA,23234,LCX,,unmarked height clearance,low_unk_pushpin
200887,37.520511,-77.41414499999999,Low Clearance,Richmond ,VA,23231,LCX,,unmarked height clearance,low_unk_pushpin
200888,37.543141999999996,-77.490778,Low Clearance,Richmond ,VA,23221,LCX,,unmarked height clearance,low_unk_pushpin
200889,37.517769,-77.413842,Low Clearance,Richmond ,VA,23231,LCX,,unmarked height clearance,low_unk_pushpin
200890,37.526343,-77.420457,Low Clearance,Richmond ,VA,23223,LCX,,unmarked height clearance,low_unk_pushpin
200891,37.544089,-77.490977,Low Clearance,Richmond ,VA,23221,LCX,,unmarked height clearance,low_unk_pushpin
200892,37.534553,-77.447224,Low Clearance,Richmond ,VA,23219,LCX,,unmarked height clearance,low_unk_pushpin
200893,36.648409,-79.86201700000001,Low Clearance,Ridgeway,VA,24148,LCX,,unmarked height clearance,low_unk_pushpin
200894,38.750547999999995,-78.394181,Low Clearance,Rileyville ,VA,22650,LCX,,ns unknown height clearance,low_unk_pushpin
200895,37.2774032,-79.9303023,Low Clearance,Roanoke,VA,24016,LCX,,unmarked height clearance,low_unk_pushpin
200896,37.252983,-79.951378,Low Clearance,Roanoke,VA,24014,LCX,,unmarked height clearance,low_unk_pushpin
200897,37.252887,-79.951853,Low Clearance,Roanoke,VA,24014,LCX,,unmarked height clearance,low_unk_pushpin
200898,37.343332000000004,-79.838495,Low Clearance,Roanoke,VA,24012,LCX,,ns unknown height clearance,low_unk_pushpin
200899,37.302676,-79.10974399999999,Low Clearance,Rustburg,VA,24588,LCX,,unmarked height clearance,low_unk_pushpin
200900,37.245509999999996,-80.16551899999999,Low Clearance,Salem,VA,24153,LCX,,ns unknown height clearance,low_unk_pushpin
200901,37.242962,-80.143876,Low Clearance,Salem,VA,24153,LCX,,ns unknown height clearance,low_unk_pushpin
200902,37.241996,-80.144205,Low Clearance,Salem ,VA,24153,LCX,,ns unknown height clearance,low_unk_pushpin
200903,38.528478,-78.600988,Low Clearance,Shenandoah,VA,22849,LCX,,ns unknown height clearance,low_unk_pushpin
200904,38.516002,-78.616483,Low Clearance,Shenandoah,VA,22849,LCX,,ns unknown height clearance,low_unk_pushpin
200905,38.492414000000004,-78.628271,Low Clearance,Shenandoah,VA,22849,LCX,,unmarked height clearance,low_unk_pushpin
200906,38.508984000000005,-78.621721,Low Clearance,Shenandoah,VA,22849,LCX,,ns unknown height clearance,low_unk_pushpin
200907,38.526509999999995,-78.59465,Low Clearance,Shenandoah,VA,22849,LCX,,ns unknown height clearance,low_unk_pushpin
200908,38.513427,-78.617864,Low Clearance,Shenandoah,VA,22849,LCX,,ns unknown height clearance,low_unk_pushpin
200909,38.55645,-78.551548,Low Clearance,Stanley,VA,22851,LCX,,ns unknown height clearance,low_unk_pushpin
200910,36.740216,-76.559535,Low Clearance,Suffolk ,VA,23434,LCX,,unmarked height clearance,low_unk_pushpin
200911,37.435807000000004,-79.843775,Low Clearance,Troutville,VA,24175,LCX,,unmarked height clearance,low_unk_pushpin
200912,37.910140999999996,-79.194086,Low Clearance,Vesuvius,VA,24483,LCX,,ns unknown height clearance,low_unk_pushpin
200913,38.066198,-78.878438,Low Clearance,Waynesboro,VA,22980,LCX,,unmarked height clearance,low_unk_pushpin
200914,38.069675,-78.87479,Low Clearance,Waynesboro,VA,22980,LCX,,unmarked height clearance,low_unk_pushpin
200915,38.046019,-78.86404399999999,Low Clearance,"Waynesboro,",VA,22980,LCX,,unmarked height clearance,low_unk_pushpin
200916,38.792788,-77.217762,Low Clearance,West Springfield ,VA,22152,LCX,,ns unknown height clearance,low_unk_pushpin
200917,38.585167,-77.263837,Low Clearance,Woodbridge ,VA,22191,LCX,,ns unknown height clearance,low_unk_pushpin
200918,37.235871,-77.384861,Low Clearance,Petersburg,VA,23803,LCX,,unmarked height clearance,low_unk_pushpin
200919,37.369322,-81.371524,Low Clearance,Anawalt,WV,24808,LCX,,unmarked height clearance,low_unk_pushpin
200920,38.19874,-81.720937,Low Clearance,Ashford,WV,25009,LCX,,unmarked height clearance,low_unk_pushpin
200921,38.416024,-82.294138,Low Clearance,Barboursville,WV,25504,LCX,,unmarked height clearance,low_unk_pushpin
200922,37.834666,-81.255965,Low Clearance,Beckley,WV,25801,LCX,,unmarked height clearance,low_unk_pushpin
200923,38.24265,-81.550873,Low Clearance,Belle ,WV,25015,LCX,,unmarked height clearance,low_unk_pushpin
200924,40.027015999999996,-80.728252,Low Clearance,Benwood,WV,26031,LCX,,unmarked height clearance,low_unk_pushpin
200925,37.323545,-81.327026,Low Clearance,Bluefield,WV,24701,LCX,,unmarked height clearance,low_unk_pushpin
200926,37.312259999999995,-81.315872,Low Clearance,Bluefield,WV,24701,LCX,,unmarked height clearance,low_unk_pushpin
200927,37.580156,-81.69901800000001,Low Clearance,Brenton,WV,24818,LCX,,unmarked height clearance,low_unk_pushpin
200928,38.220042,-81.430973,Low Clearance,Cedar Grove,WV,25039,LCX,,unmarked low height clearance,low_unk_pushpin
200929,38.334804999999996,-81.596387,Low Clearance,Charleston,WV,25311,LCX,,unmarked height clearance,low_unk_pushpin
200930,38.364906,-81.66027700000001,Low Clearance,Charleston,WV,25302,LCX,,unmarked height clearance,low_unk_pushpin
200931,38.328089,-81.604865,Low Clearance,Charleston,WV,25304,LCX,,unmarked height clearance,low_unk_pushpin
200932,38.367193,-81.65785100000001,Low Clearance,Charleston,WV,25302,LCX,,unmarked low height clearance,low_unk_pushpin
200933,38.366715,-81.65880600000001,Low Clearance,Charleston,WV,25302,LCX,,unmarked height clearance,low_unk_pushpin
200934,38.355039,-81.629639,Low Clearance,Charleston,WV,25301,LCX,,unmarked height clearance,low_unk_pushpin
200935,38.365565999999994,-81.659767,Low Clearance,Charleston,WV,25302,LCX,,unmarked height clearance,low_unk_pushpin
200936,38.363446,-81.661366,Low Clearance,Charleston,WV,25387,LCX,,unmarked high height clearance,low_unk_pushpin
200937,38.366170000000004,-81.659313,Low Clearance,Charleston,WV,25302,LCX,,unmarked height clearance,low_unk_pushpin
200938,38.337996999999994,-81.629511,Low Clearance,Charleston,WV,25314,LCX,,unmarked height clearance,low_unk_pushpin
200939,38.327071000000004,-81.601403,Low Clearance,Charleston,WV,25304,LCX,,unmarked low height clearance,low_unk_pushpin
200940,38.333581,-81.62215400000001,Low Clearance,Charleston,WV,25314,LCX,,unmarked low height clearance,low_unk_pushpin
200941,38.361345,-81.663825,Low Clearance,Charleston,WV,25314,LCX,,unmarked height clearance,low_unk_pushpin
200942,37.580153,-81.698984,Low Clearance,Clear Fork,WV,24822,LCX,,unmarked height clearance,low_unk_pushpin
200943,37.534453000000006,-81.37796,Low Clearance,Corinne,WV,25826,LCX,,ns unknown height clearance,low_unk_pushpin
200944,37.526852000000005,-81.37078000000001,Low Clearance,Corinne ,WV,25826,LCX,,unmarked height clearance,low_unk_pushpin
200945,37.451487,-81.707788,Low Clearance,Davy,WV,24828,LCX,,unmarked height clearance,low_unk_pushpin
200946,37.468089,-81.682519,Low Clearance,Davy,WV,24828,LCX,,ns unknown height clearance,low_unk_pushpin
200947,37.468312,-81.681687,Low Clearance,Davy,WV,24828,LCX,,ns unknown height clearance,low_unk_pushpin
200948,37.458619,-81.70099300000001,Low Clearance,Davy,WV,24828,LCX,,ns unknown height clearance,low_unk_pushpin
200949,38.823366,-82.15397,Low Clearance,Gallipolis Ferry,WV,25515,LCX,,ns unknown height clearance,low_unk_pushpin
200950,37.555358,-81.96635699999999,Low Clearance,Gilbert ,WV,25621,LCX,,ns unknown height clearance,low_unk_pushpin
200951,37.588875,-81.832925,Low Clearance,Hanover,WV,24839,LCX,,unmarked height clearance,low_unk_pushpin
200952,37.580208,-81.803291,Low Clearance,Hanover,WV,24839,LCX,,unmarked height clearance,low_unk_pushpin
200953,38.205394,-81.393327,Low Clearance,Hansford,WV,25103,LCX,,ns unknown height clearance,low_unk_pushpin
200954,38.831592,-82.134389,Low Clearance,Henderson,WV,25106,LCX,,unmarked height clearance,low_unk_pushpin
200955,38.42086,-82.389763,Low Clearance,Huntington,WV,25702,LCX,,unmarked height clearance,low_unk_pushpin
200956,37.481307,-81.83885,Low Clearance,Iaeger,WV,24844,LCX,,unmarked low height clearance,low_unk_pushpin
200957,38.398176,-82.576977,Low Clearance,Kenova,WV,25530,LCX,,unmarked height clearance,low_unk_pushpin
200958,38.398872999999995,-82.57656800000001,Low Clearance,Kenova,WV,25530,LCX,,unmarked height clearance,low_unk_pushpin
200959,38.305483,-82.57332099999999,Low Clearance,Kenova,WV,25530,LCX,,unmarked low height clearance,low_unk_pushpin
200960,38.309191,-82.571605,Low Clearance,Kenova,WV,25530,LCX,,ns unknown height clearance,low_unk_pushpin
200961,38.39608,-82.577724,Low Clearance,Kenova,WV,25530,LCX,,unmarked height clearance,low_unk_pushpin
200962,38.39633,-82.578479,Low Clearance,Kenova,WV,25530,LCX,,unmarked height clearance,low_unk_pushpin
200963,38.399665,-82.576208,Low Clearance,Kenova,WV,25530,LCX,,unmarked height clearance,low_unk_pushpin
200964,38.398303000000006,-82.585656,Low Clearance,Kenova,WV,25530,LCX,,unmarked height clearance,low_unk_pushpin
200965,38.400556,-82.575779,Low Clearance,Kenova,WV,25530,LCX,,unmarked height clearance,low_unk_pushpin
200966,38.401493,-82.575301,Low Clearance,Kenova,WV,25530,LCX,,unmarked height clearance,low_unk_pushpin
200967,37.419583,-81.25536,Low Clearance,Matoaka,WV,24736,LCX,,unmarked height clearance,low_unk_pushpin
200968,37.481456,-81.315186,Low Clearance,Matoaka,WV,24736,LCX,,unmarked high height clearance,low_unk_pushpin
200969,37.501205999999996,-81.33604100000001,Low Clearance,Matoaka,WV,24736,LCX,,unmarked height clearance,low_unk_pushpin
200970,37.77863,-80.892785,Low Clearance,Meadow Bridge,WV,25976,LCX,,ns unknown height clearance,low_unk_pushpin
200971,37.511299,-81.92698399999999,Low Clearance,Mohawk,WV,24862,LCX,,unmarked low height clearance,low_unk_pushpin
200972,38.834346999999994,-82.131111,Low Clearance,Point Pleasant,WV,25550,LCX,,ns unknown height clearance,low_unk_pushpin
200973,38.835574,-82.130377,Low Clearance,Point Pleasant,WV,25550,LCX,,ns unknown height clearance,low_unk_pushpin
200974,38.845624,-82.13801,Low Clearance,Point Pleasant,WV,25550,LCX,,unmarked height clearance,low_unk_pushpin
200975,38.875240000000005,-82.131323,Low Clearance,Point Pleasant,WV,25550,LCX,,ns unknown height clearance,low_unk_pushpin
200976,38.845482000000004,-82.136934,Low Clearance,Point Pleasant,WV,25550,LCX,,unmarked height clearance,low_unk_pushpin
200977,37.347712,-80.918622,Low Clearance,Princeton,WV,24740,LCX,,unmarked height clearance,low_unk_pushpin
200978,37.320029,-81.029486,Low Clearance,Princeton,WV,24739,LCX,,ns unknown height clearance,low_unk_pushpin
200979,37.339459999999995,-81.060836,Low Clearance,Princeton,WV,24740,LCX,,unmarked high height clearance,low_unk_pushpin
200980,37.337277,-80.954142,Low Clearance,Princeton,WV,24739,LCX,,unmarked height clearance,low_unk_pushpin
200981,38.066652000000005,-80.708218,Low Clearance,Quinwood ,wv,25981,LCX,,unmarked height clearance,low_unk_pushpin
200982,37.415828000000005,-81.26445600000001,Low Clearance,Rock,WV,24747,LCX,,unmarked height clearance,low_unk_pushpin
200983,37.372627,-81.2237,Low Clearance,Rock,WV,24747,LCX,,unmarked height clearance,low_unk_pushpin
200984,37.971819,-81.200672,Low Clearance,Scarbro ,WV,25917,LCX,,ns unknown height clearance,low_unk_pushpin
200985,37.966034,-81.221514,Low Clearance,Scarbro ,WV,25917,LCX,,unmarked high height clearance,low_unk_pushpin
200986,38.443164,-81.848086,Low Clearance,Scott Depot,WV,25560,LCX,,unmarked height clearance,low_unk_pushpin
200987,37.608078000000006,-81.73045,Low Clearance,Simon,WV,24882,LCX,,ns unknown height clearance,low_unk_pushpin
200988,37.615068,-81.78825400000001,Low Clearance,Simon,WV,24882,LCX,,ns unknown height clearance,low_unk_pushpin
200989,37.61061,-81.733598,Low Clearance,Simon,WV,24882,LCX,,ns unknown height clearance,low_unk_pushpin
200990,37.604215,-81.77846,Low Clearance,Simon,WV,24882,LCX,,ns unknown height clearance,low_unk_pushpin
200991,37.589938000000004,-81.767981,Low Clearance,Simon,WV,24882,LCX,,unmarked height clearance,low_unk_pushpin
200992,37.687197,-81.332708,Low Clearance,Slab Fork,WV,25920,LCX,,unmarked high height clearance,low_unk_pushpin
200993,37.668901,-81.376271,Low Clearance,Slab Fork,WV,25920,LCX,,unmarked height clearance,low_unk_pushpin
200994,38.181002,-81.306809,Low Clearance,Smithers,WV,25186,LCX,,unmarked height clearance,low_unk_pushpin
200995,38.350782,-81.740219,Low Clearance,South Charleston,WV,25309,LCX,,unmarked height clearance,low_unk_pushpin
200996,38.384963,-81.82080400000001,Low Clearance,St Albans,WV,25177,LCX,,unmarked low height clearance,low_unk_pushpin
200997,38.441085,-81.850301,Low Clearance,St Albans,WV,25177,LCX,,unmarked height clearance,low_unk_pushpin
200998,38.279030999999996,-80.977221,Low Clearance,summersville,WV,26651,LCX,,unmarked height clearance,low_unk_pushpin
200999,38.279362,-80.961409,Low Clearance,Summersville ,WV,26651,LCX,,ns unknown height clearance,low_unk_pushpin
201000,38.449785,-81.83729699999999,Low Clearance,Winfield,WV,25213,LCX,,unmarked height clearance,low_unk_pushpin
201012,46.133139,-67.78444300000001,Low Clearance,Houlton,ME,4730,LCX,,unmarked height clearance,low_unk_pushpin
201014,46.136748,-67.871476,Low Clearance,Houlton,ME,4730,LCX,,unmarked height clearance,low_unk_pushpin
201028,45.607122,-68.522165,Low Clearance,Medway,ME,4460,LCX,,unmarked height clearance,low_unk_pushpin
201031,45.375452,-68.605166,Low Clearance,Chester,ME,4457,LCX,,unmarked height clearance,low_unk_pushpin
201033,45.236177000000005,-68.67718,Low Clearance,Howland,ME,4448,LCX,,unmarked height clearance,low_unk_pushpin
201034,45.051973,-68.68777,Low Clearance,Argyle,ME,4468,LCX,,unmarked height clearance,low_unk_pushpin
201035,44.995155,-68.702155,Low Clearance,Old Town,ME,4468,LCX,,unmarked height clearance,low_unk_pushpin
201036,44.95945,-68.707261,Low Clearance,Old Town,ME,4468,LCX,,unmarked height clearance,low_unk_pushpin
201037,44.91834,-68.699433,Low Clearance,Old Town,ME,4468,LCX,,unmarked height clearance,low_unk_pushpin
201038,44.90292,-68.691905,Low Clearance,Orono,ME,4473,LCX,,unmarked height clearance,low_unk_pushpin
201039,44.889762,-68.693368,Low Clearance,Orono,ME,4473,LCX,,unmarked height clearance,low_unk_pushpin
201040,44.873314,-68.702353,Low Clearance,Orono,ME,4473,LCX,,unmarked height clearance,low_unk_pushpin
201041,44.846246,-68.730379,Low Clearance,Bangor,ME,4401,LCX,,unmarked height clearance,low_unk_pushpin
201043,44.825557,-68.75394399999999,Low Clearance,Bangor,ME,4401,LCX,,unmarked height clearance,low_unk_pushpin
201044,44.824478000000006,-68.758537,Low Clearance,Bangor,ME,4401,LCX,,unmarked height clearance,low_unk_pushpin
201045,44.820440999999995,-68.769017,Low Clearance,Bangor,ME,4401,LCX,,unmarked height clearance,low_unk_pushpin
201047,44.816856,-68.78479200000001,Low Clearance,Bangor,ME,4401,LCX,,unmarked height clearance,low_unk_pushpin
201048,44.814864,-68.78789,Low Clearance,Bangor,ME,4401,LCX,,unmarked height clearance,low_unk_pushpin
201049,44.811451,-68.790878,Low Clearance,Bangor,ME,4401,LCX,,unmarked height clearance,low_unk_pushpin
201050,44.808885,-68.79333000000001,Low Clearance,Bangor,ME,4401,LCX,,unmarked height clearance,low_unk_pushpin
201052,44.786966,-68.808329,Low Clearance,Bangor,ME,4401,LCX,,unmarked height clearance,low_unk_pushpin
201053,44.786716999999996,-68.79406800000001,Low Clearance,Bangor,ME,4401,LCX,,unmarked height clearance,low_unk_pushpin
201054,44.785087,-68.779876,Low Clearance,Bangor,ME,4401,LCX,,unmarked height clearance,low_unk_pushpin
201055,44.783412,-68.772735,Low Clearance,Brewer,ME,4412,LCX,,unmarked height clearance,low_unk_pushpin
201056,44.773978,-68.746044,Low Clearance,Brewer,ME,4412,LCX,,unmarked height clearance,low_unk_pushpin
201057,44.771315,-68.72159,Low Clearance,Brewer,ME,4412,LCX,,unmarked height clearance,low_unk_pushpin
201058,44.784152,-68.81146899999999,Low Clearance,Bangor,ME,4401,LCX,,unmarked height clearance,low_unk_pushpin
201059,44.780679,-68.817561,Low Clearance,Bangor,ME,4401,LCX,,unmarked height clearance,low_unk_pushpin
201060,44.773706,-68.859303,Low Clearance,Hampden,ME,4444,LCX,,unmarked height clearance,low_unk_pushpin
201061,44.769866,-68.86945899999999,Low Clearance,Hampden,ME,4444,LCX,,unmarked height clearance,low_unk_pushpin
201062,44.76342,-68.951426,Low Clearance,Hermon,ME,4401,LCX,,unmarked height clearance,low_unk_pushpin
201063,44.758708,-68.974468,Low Clearance,Hermon,ME,4401,LCX,,unmarked height clearance,low_unk_pushpin
201064,44.778457,-69.062042,Low Clearance,Hermon,ME,4401,LCX,,unmarked height clearance,low_unk_pushpin
201066,44.787861,-69.164455,Low Clearance,Etna,ME,4434,LCX,,unmarked height clearance,low_unk_pushpin
201067,44.80232,-69.220584,Low Clearance,Plymouth,ME,4969,LCX,,unmarked height clearance,low_unk_pushpin
201068,44.81864,-69.259538,Low Clearance,Newport,ME,4953,LCX,,unmarked height clearance,low_unk_pushpin
201069,44.833965,-69.29193000000001,Low Clearance,Palmyra,ME,4965,LCX,,unmarked height clearance,low_unk_pushpin
201071,44.79954,-69.392844,Low Clearance,Pittsfield,ME,4967,LCX,,unmarked height clearance,low_unk_pushpin
201073,44.769799,-69.40944,Low Clearance,Pittsfield,ME,4967,LCX,,unmarked height clearance,low_unk_pushpin
201074,44.736198,-69.432541,Low Clearance,Pittsfield,ME,4967,LCX,,unmarked height clearance,low_unk_pushpin
201075,44.705306,-69.45572800000001,Low Clearance,Pittsfield,ME,4967,LCX,,unmarked height clearance,low_unk_pushpin
201076,44.661759,-69.497851,Low Clearance,Clinton,ME,4927,LCX,,unmarked height clearance,low_unk_pushpin
201077,44.650217,-69.515566,Low Clearance,Clinton,ME,4927,LCX,,unmarked height clearance,low_unk_pushpin
201079,44.601714,-69.583093,Low Clearance,Benton,ME,4901,LCX,,unmarked height clearance,low_unk_pushpin
201080,44.601202,-69.59884699999999,Low Clearance,Waterville,ME,4901,LCX,,unmarked height clearance,low_unk_pushpin
201081,44.594196000000004,-69.61578100000001,Low Clearance,Waterville,ME,4901,LCX,,unmarked height clearance,low_unk_pushpin
201083,44.570959,-69.65566700000001,Low Clearance,Waterville,ME,4901,LCX,,unmarked height clearance,low_unk_pushpin
201084,44.566201,-69.66929499999999,Low Clearance,Waterville,ME,4901,LCX,,unmarked height clearance,low_unk_pushpin
201088,44.495869,-69.704719,Low Clearance,Sidney,ME,4330,LCX,,unmarked height clearance,low_unk_pushpin
201090,44.4533,-69.716078,Low Clearance,Sidney,ME,4330,LCX,,unmarked height clearance,low_unk_pushpin
201091,44.422602000000005,-69.740544,Low Clearance,Sidney,ME,4330,LCX,,unmarked height clearance,low_unk_pushpin
201092,44.354791,-69.78186600000001,Low Clearance,Augusta,ME,4330,LCX,,unmarked height clearance,low_unk_pushpin
201093,44.351564,-69.784527,Low Clearance,Augusta,ME,4330,LCX,,unmarked height clearance,low_unk_pushpin
201095,44.337563,-69.80718900000001,Low Clearance,Augusta,ME,4330,LCX,,unmarked height clearance,low_unk_pushpin
201096,44.320161,-69.813487,Low Clearance,Augusta,ME,4330,LCX,,unmarked height clearance,low_unk_pushpin
201099,44.297292999999996,-69.807415,Low Clearance,Hallowell,ME,4347,LCX,,unmarked height clearance,low_unk_pushpin
201101,44.276688,-69.80628399999999,Low Clearance,Hallowell,ME,4347,LCX,,unmarked height clearance,low_unk_pushpin
201102,44.263859000000004,-69.806791,Low Clearance,Farmingdale,ME,4344,LCX,,unmarked height clearance,low_unk_pushpin
201103,44.245131,-69.808121,Low Clearance,Farmingdale,ME,4344,LCX,,unmarked height clearance,low_unk_pushpin
201104,44.230952,-69.811588,Low Clearance,West Gardiner,ME,4345,LCX,,unmarked height clearance,low_unk_pushpin
201105,44.217991999999995,-69.82378,Low Clearance,West Gardiner,ME,4345,LCX,,unmarked height clearance,low_unk_pushpin
201106,44.208585,-69.83264399999999,Low Clearance,West Gardiner,ME,4345,LCX,,unmarked height clearance,low_unk_pushpin
201107,44.177074,-69.862251,Low Clearance,Litchfield,ME,4350,LCX,,unmarked height clearance,low_unk_pushpin
201108,44.154993,-69.901545,Low Clearance,Litchfield,ME,4350,LCX,,unmarked height clearance,low_unk_pushpin
201109,44.148740999999994,-69.915689,Low Clearance,Litchfield,ME,4350,LCX,,unmarked height clearance,low_unk_pushpin
201110,44.144651,-69.92509100000001,Low Clearance,Litchfield,ME,4350,LCX,,unmarked height clearance,low_unk_pushpin
201111,44.131325,-69.95525699999999,Low Clearance,Litchfield,ME,4350,LCX,,unmarked height clearance,low_unk_pushpin
201112,44.126481,-69.966892,Low Clearance,Litchfield,ME,4350,LCX,,unmarked height clearance,low_unk_pushpin
201113,44.1252,-69.98079399999999,Low Clearance,Litchfield,ME,4350,LCX,,unmarked height clearance,low_unk_pushpin
201114,44.124777,-69.99974300000001,Low Clearance,Litchfield,ME,4350,LCX,,unmarked height clearance,low_unk_pushpin
201115,44.124478,-70.019762,Low Clearance,Sabattus,ME,4280,LCX,,unmarked height clearance,low_unk_pushpin
201116,44.124101,-70.035866,Low Clearance,Sabattus,ME,4280,LCX,,unmarked height clearance,low_unk_pushpin
201117,44.112618,-70.062781,Low Clearance,Sabattus,ME,4280,LCX,,unmarked height clearance,low_unk_pushpin
201118,44.106423,-70.075313,Low Clearance,Sabattus,ME,4280,LCX,,unmarked height clearance,low_unk_pushpin
201119,44.101285,-70.0858,Low Clearance,Sabattus,ME,4280,LCX,,unmarked height clearance,low_unk_pushpin
201120,44.083366,-70.112371,Low Clearance,Sabattus,ME,4280,LCX,,unmarked height clearance,low_unk_pushpin
201121,44.078632,-70.122033,Low Clearance,Sabattus,ME,4280,LCX,,unmarked height clearance,low_unk_pushpin
201122,44.070852,-70.138725,Low Clearance,Lewiston,ME,4240,LCX,,unmarked height clearance,low_unk_pushpin
201123,44.066584999999996,-70.154574,Low Clearance,Lewiston,ME,4240,LCX,,unmarked height clearance,low_unk_pushpin
201125,44.071622,-70.184857,Low Clearance,Lewiston,ME,4240,LCX,,unmarked height clearance,low_unk_pushpin
201126,44.070733000000004,-70.196291,Low Clearance,Lewiston,ME,4240,LCX,,unmarked height clearance,low_unk_pushpin
201127,44.069382,-70.199966,Low Clearance,Lewiston,ME,4240,LCX,,unmarked height clearance,low_unk_pushpin
201128,44.064209000000005,-70.20835100000001,Low Clearance,Auburn,ME,4210,LCX,,unmarked height clearance,low_unk_pushpin
201129,44.052741,-70.226911,Low Clearance,Auburn,ME,4210,LCX,,unmarked height clearance,low_unk_pushpin
201130,44.047919,-70.239267,Low Clearance,Auburn,ME,4210,LCX,,unmarked height clearance,low_unk_pushpin
201131,44.04067,-70.258125,Low Clearance,Auburn,ME,4210,LCX,,unmarked height clearance,low_unk_pushpin
201132,44.038894,-70.263081,Low Clearance,Auburn,ME,4210,LCX,,unmarked height clearance,low_unk_pushpin
201133,44.036069,-70.273533,Low Clearance,Auburn,ME,4210,LCX,,unmarked height clearance,low_unk_pushpin
201134,44.027794,-70.288421,Low Clearance,Auburn,ME,4210,LCX,,unmarked height clearance,low_unk_pushpin
201135,43.997365,-70.308132,Low Clearance,New Gloucester,ME,4260,LCX,,unmarked height clearance,low_unk_pushpin
201136,43.985523,-70.309908,Low Clearance,New Gloucester,ME,4260,LCX,,unmarked height clearance,low_unk_pushpin
201137,43.977468,-70.31517,Low Clearance,New Gloucester,ME,4260,LCX,,unmarked height clearance,low_unk_pushpin
201138,43.958343,-70.32895400000001,Low Clearance,New Gloucester,ME,4260,LCX,,unmarked height clearance,low_unk_pushpin
201139,43.942085,-70.33380799999999,Low Clearance,New Gloucester,ME,4260,LCX,,unmarked height clearance,low_unk_pushpin
201140,43.924027,-70.337108,Low Clearance,New Gloucester,ME,4260,LCX,,unmarked height clearance,low_unk_pushpin
201141,43.897524,-70.341818,Low Clearance,Gray,ME,4039,LCX,,unmarked height clearance,low_unk_pushpin
201142,43.883526,-70.33615,Low Clearance,Gray,ME,4039,LCX,,unmarked height clearance,low_unk_pushpin
201143,43.878673,-70.33328900000001,Low Clearance,Gray,ME,4039,LCX,,unmarked height clearance,low_unk_pushpin
201145,43.837308,-70.32459300000001,Low Clearance,Gray,ME,4039,LCX,,unmarked height clearance,low_unk_pushpin
201146,43.814268,-70.317961,Low Clearance,Cumberland,ME,4021,LCX,,unmarked height clearance,low_unk_pushpin
201147,43.790442,-70.315128,Low Clearance,Falmouth,ME,4105,LCX,,unmarked height clearance,low_unk_pushpin
201148,43.746713,-70.30319300000001,Low Clearance,Falmouth,ME,4105,LCX,,unmarked height clearance,low_unk_pushpin
201149,43.734562,-70.301923,Low Clearance,Falmouth,ME,4105,LCX,,unmarked height clearance,low_unk_pushpin
201150,43.732212,-70.30233199999999,Low Clearance,Falmouth,ME,4105,LCX,,unmarked height clearance,low_unk_pushpin
201151,43.726129,-70.303788,Low Clearance,Falmouth,ME,4105,LCX,,unmarked height clearance,low_unk_pushpin
201152,43.721632,-70.304863,Low Clearance,Portland,ME,4103,LCX,,unmarked height clearance,low_unk_pushpin
201153,43.715906,-70.305782,Low Clearance,Portland,ME,4103,LCX,,unmarked height clearance,low_unk_pushpin
201154,43.699555,-70.315476,Low Clearance,Portland,ME,4103,LCX,,unmarked height clearance,low_unk_pushpin
201156,43.680488000000004,-70.32524699999999,Low Clearance,Portland,ME,4102,LCX,,unmarked height clearance,low_unk_pushpin
201157,43.676362,-70.327168,Low Clearance,Portland,ME,4102,LCX,,unmarked height clearance,low_unk_pushpin
201158,43.667421999999995,-70.33114300000001,Low Clearance,Westbrook,ME,4092,LCX,,unmarked height clearance,low_unk_pushpin
201159,43.664082,-70.33209000000001,Low Clearance,Westbrook,ME,4092,LCX,,unmarked height clearance,low_unk_pushpin
201160,43.660702,-70.33202,Low Clearance,Westbrook,ME,4092,LCX,,unmarked height clearance,low_unk_pushpin
201161,43.651007,-70.331172,Low Clearance,Portland,ME,4102,LCX,,unmarked height clearance,low_unk_pushpin
201162,43.649556,-70.331237,Low Clearance,Portland,ME,4102,LCX,,unmarked height clearance,low_unk_pushpin
201163,43.646245,-70.331889,Low Clearance,Portland,ME,4102,LCX,,unmarked height clearance,low_unk_pushpin
201164,43.638023,-70.33808499999999,Low Clearance,South Portland,ME,4106,LCX,,unmarked height clearance,low_unk_pushpin
201165,43.632151,-70.344121,Low Clearance,South Portland,ME,4106,LCX,,unmarked height clearance,low_unk_pushpin
201166,43.628685,-70.347836,Low Clearance,Scarborough,ME,4074,LCX,,unmarked height clearance,low_unk_pushpin
201167,43.625463,-70.35114,Low Clearance,Scarborough,ME,4074,LCX,,unmarked height clearance,low_unk_pushpin
201168,43.622078,-70.354636,Low Clearance,Scarborough,ME,4074,LCX,,unmarked height clearance,low_unk_pushpin
201169,43.610375,-70.366928,Low Clearance,Scarborough,ME,4074,LCX,,unmarked height clearance,low_unk_pushpin
201170,43.605158,-70.37237900000001,Low Clearance,Scarborough,ME,4074,LCX,,unmarked height clearance,low_unk_pushpin
201171,43.599453999999994,-70.37799,Low Clearance,Scarborough,ME,4074,LCX,,unmarked height clearance,low_unk_pushpin
201172,43.59138,-70.38532,Low Clearance,Scarborough,ME,4074,LCX,,unmarked height clearance,low_unk_pushpin
201173,43.574471,-70.403245,Low Clearance,Scarborough,ME,4074,LCX,,unmarked height clearance,low_unk_pushpin
201174,43.554024,-70.424912,Low Clearance,Saco,ME,4072,LCX,,unmarked height clearance,low_unk_pushpin
201175,43.527741,-70.45276899999999,Low Clearance,Saco,ME,4072,LCX,,unmarked height clearance,low_unk_pushpin
201176,43.522571,-70.45902199999999,Low Clearance,Saco,ME,4072,LCX,,unmarked height clearance,low_unk_pushpin
201177,43.514379,-70.470352,Low Clearance,Saco,ME,4072,LCX,,unmarked height clearance,low_unk_pushpin
201178,43.503645,-70.484241,Low Clearance,Saco,ME,4072,LCX,,unmarked height clearance,low_unk_pushpin
201179,43.496045,-70.490049,Low Clearance,Saco,ME,4072,LCX,,unmarked height clearance,low_unk_pushpin
201180,43.480224,-70.49981600000001,Low Clearance,Biddeford,ME,4005,LCX,,unmarked height clearance,low_unk_pushpin
201181,43.477121999999994,-70.502637,Low Clearance,Biddeford,ME,4005,LCX,,unmarked height clearance,low_unk_pushpin
201182,43.467696999999994,-70.515772,Low Clearance,Biddeford,ME,4005,LCX,,unmarked height clearance,low_unk_pushpin
201183,43.443037,-70.537875,Low Clearance,Arundel,ME,4046,LCX,,unmarked height clearance,low_unk_pushpin
201184,43.416968,-70.555925,Low Clearance,Kennebunk,ME,4043,LCX,,unmarked height clearance,low_unk_pushpin
201185,43.404333,-70.563002,Low Clearance,Kennebunk,ME,4043,LCX,,unmarked height clearance,low_unk_pushpin
201186,43.396623,-70.567351,Low Clearance,Kennebunk,ME,4043,LCX,,unmarked height clearance,low_unk_pushpin
201187,43.381376,-70.57583299999999,Low Clearance,Kennebunk,ME,4043,LCX,,unmarked height clearance,low_unk_pushpin
201188,43.357255,-70.58925699999999,Low Clearance,Wells,ME,4090,LCX,,unmarked height clearance,low_unk_pushpin
201189,43.333779,-70.60230200000001,Low Clearance,Wells,ME,4090,LCX,,unmarked height clearance,low_unk_pushpin
201190,43.322687,-70.60781899999999,Low Clearance,Wells,ME,4090,LCX,,unmarked height clearance,low_unk_pushpin
201191,43.297748,-70.615939,Low Clearance,Wells,ME,4090,LCX,,unmarked height clearance,low_unk_pushpin
201192,43.27174,-70.61854100000001,Low Clearance,Wells,ME,4090,LCX,,unmarked height clearance,low_unk_pushpin
201193,43.262734,-70.61946999999999,Low Clearance,Oqunquit,ME,3907,LCX,,unmarked height clearance,low_unk_pushpin
201194,43.248739,-70.625056,Low Clearance,Oqunquit,ME,3907,LCX,,unmarked height clearance,low_unk_pushpin
201195,43.223696999999994,-70.637158,Low Clearance,Cape Neddick,ME,3902,LCX,,unmarked height clearance,low_unk_pushpin
201196,43.205019,-70.64325799999999,Low Clearance,Cape Neddick,ME,3902,LCX,,unmarked height clearance,low_unk_pushpin
201197,43.156611,-70.665685,Low Clearance,York,ME,3909,LCX,,unmarked height clearance,low_unk_pushpin
201198,43.151687,-70.67620600000001,Low Clearance,York,ME,3909,LCX,,unmarked height clearance,low_unk_pushpin
201199,43.14069,-70.69948199999999,Low Clearance,York,ME,3909,LCX,,unmarked height clearance,low_unk_pushpin
201200,43.123704,-70.723628,Low Clearance,Kittery,ME,3904,LCX,,unmarked height clearance,low_unk_pushpin
201201,43.112508,-70.737317,Low Clearance,Kittery,ME,3904,LCX,,unmarked height clearance,low_unk_pushpin
201202,43.108326,-70.742829,Low Clearance,Kittery,ME,3904,LCX,,unmarked height clearance,low_unk_pushpin
201203,43.10458,-70.747638,Low Clearance,Kittery,ME,3904,LCX,,unmarked height clearance,low_unk_pushpin
201204,43.098011,-70.756157,Low Clearance,Kittery,ME,3904,LCX,,unmarked height clearance,low_unk_pushpin
201205,45.731631,-68.589014,Low Clearance,Medway,ME,4460,LCX,,unmarked height clearance,low_unk_pushpin
201206,45.35017,-69.050762,Low Clearance,Brownville,ME,4414,LCX,,unmarked height clearance,low_unk_pushpin
201207,45.350716999999996,-69.05179100000001,Low Clearance,Brownville,ME,4414,LCX,,unmarked height clearance,low_unk_pushpin
201211,44.791989,-68.867222,Low Clearance,Hermon,ME,4401,LCX,,unmarked height clearance,low_unk_pushpin
201212,44.791713,-68.867352,Low Clearance,Hermon,ME,4401,LCX,,ns unknown height clearance,low_unk_pushpin
201213,44.792223,-68.863472,Low Clearance,Hermon,ME,4401,LCX,,unmarked height clearance,low_unk_pushpin
201214,44.639623,-68.885467,Low Clearance,Frankfort,ME,4438,LCX,,unmarked height clearance,low_unk_pushpin
201217,44.591087,-68.868158,Low Clearance,Frankfort,ME,4438,LCX,,unmarked height clearance,low_unk_pushpin
201219,44.517343,-68.814157,Low Clearance,Stockton Springs,ME,4981,LCX,,unmarked height clearance,low_unk_pushpin
201220,44.781031,-68.781995,Low Clearance,Bangor,ME,4401,LCX,,unmarked height clearance,low_unk_pushpin
201222,44.781574,-68.761688,Low Clearance,Brewer,ME,4412,LCX,,unmarked height clearance,low_unk_pushpin
201223,44.782585,-68.76515699999999,Low Clearance,Brewer,ME,4412,LCX,,unmarked height clearance,low_unk_pushpin
201224,44.780454999999996,-68.758769,Low Clearance,Brewer,ME,4412,LCX,,unmarked height clearance,low_unk_pushpin
201228,44.558741999999995,-69.628124,Low Clearance,Waterville,ME,4901,LCX,,unmarked height clearance,low_unk_pushpin
201229,44.554952,-69.709715,Low Clearance,Oakland,ME,4963,LCX,,unmarked height clearance,low_unk_pushpin
201231,44.100389,-70.227235,Low Clearance,Auburn,ME,4210,LCX,,unmarked height clearance,low_unk_pushpin
201234,43.629684000000005,-70.295872,Low Clearance,South Portland,ME,4106,LCX,,unmarked height clearance,low_unk_pushpin
201237,46.874414,-67.98881899999999,Low Clearance,Caribou,ME,4736,LCX,,unmarked height clearance,low_unk_pushpin
201238,46.874206,-67.990104,Low Clearance,Caribou,ME,4736,LCX,,unmarked height clearance,low_unk_pushpin
201240,46.887581,-68.014199,Low Clearance,Caribou,ME,4736,LCX,,unmarked height clearance,low_unk_pushpin
201241,46.853878,-68.004207,Low Clearance,Caribou,ME,4736,LCX,,unmarked height clearance,low_unk_pushpin
201242,46.650526,-68.003849,Low Clearance,Presque Isle,ME,4769,LCX,,unmarked height clearance,low_unk_pushpin
201244,44.491437,-68.85761,Low Clearance,Stockton Springs,ME,4981,LCX,,unmarked height clearance,low_unk_pushpin
201247,44.423677000000005,-69.021556,Low Clearance,Belfast,ME,4915,LCX,,unmarked height clearance,low_unk_pushpin
201250,44.032645,-69.542934,Low Clearance,Newcastle,ME,4553,LCX,,unmarked height clearance,low_unk_pushpin
201251,43.911879,-69.802626,Low Clearance,Bath,ME,4530,LCX,,unmarked height clearance,low_unk_pushpin
201252,43.911532,-69.81286300000001,Low Clearance,Bath,ME,4530,LCX,,unmarked height clearance,low_unk_pushpin
201253,43.911561,-69.81529300000001,Low Clearance,Bath,ME,4530,LCX,,unmarked height clearance,low_unk_pushpin
201254,43.911371,-69.816091,Low Clearance,Bath,ME,4530,LCX,,unmarked height clearance,low_unk_pushpin
201255,43.911131,-69.817272,Low Clearance,Bath,ME,4530,LCX,,unmarked height clearance,low_unk_pushpin
201256,43.910995,-69.817988,Low Clearance,Bath,ME,4530,LCX,,unmarked height clearance,low_unk_pushpin
201257,43.907241,-69.832999,Low Clearance,Bath,ME,4530,LCX,,unmarked height clearance,low_unk_pushpin
201258,43.917465,-69.862284,Low Clearance,West Bath,ME,4530,LCX,,unmarked height clearance,low_unk_pushpin
201259,43.912268,-69.907317,Low Clearance,West Bath,ME,4530,LCX,,unmarked height clearance,low_unk_pushpin
201261,43.919596999999996,-69.95319599999999,Low Clearance,Brunswick,ME,4011,LCX,,unmarked height clearance,low_unk_pushpin
201262,43.91867,-69.964489,Low Clearance,Brunswick,ME,4011,LCX,,unmarked height clearance,low_unk_pushpin
201263,43.918469,-69.966651,Low Clearance,Brunswick,ME,4011,LCX,,unmarked height clearance,low_unk_pushpin
201264,43.808081,-70.16601,Low Clearance,Yarmouth,ME,4096,LCX,,unmarked height clearance,low_unk_pushpin
201266,43.769086,-70.202435,Low Clearance,Cumberland,ME,4021,LCX,,unmarked height clearance,low_unk_pushpin
201267,43.730072,-70.228983,Low Clearance,Falmouth,ME,4105,LCX,,unmarked height clearance,low_unk_pushpin
201268,43.685897,-70.252098,Low Clearance,Portland,ME,4103,LCX,,unmarked height clearance,low_unk_pushpin
201269,43.603978000000005,-70.318252,Low Clearance,Scarborough,ME,4074,LCX,,unmarked height clearance,low_unk_pushpin
201270,43.512308000000004,-70.43179,Low Clearance,Saco,ME,4072,LCX,,unmarked height clearance,low_unk_pushpin
201272,43.093143,-70.753702,Low Clearance,Kittery,ME,3904,LCX,,unmarked height clearance,low_unk_pushpin
201727,35.49661,-83.155641,Low Clearance,Maggie Valley,NC,28751,LCX,,unmarked height clearance,low_unk_pushpin
